,Unnamed: 0,year,month,days,hour,minute,second,depth,latitude,longitude,magnitude,station,station_latitude,station_longitude,pga,sa0.01,sa0.02,sa0.03,sa0.05,sa0.07,sa0.1,sa0.15,sa0.2,sa0.25,sa0.3,sa0.4,sa0.5,sa0.75,sa1,sa1.5,sa2,sa3,sa4,sa5,sa7.5,sa10,Vs30,HVSRamp,fpeak,T*,P*,Rock/Soil,event_type,HypDist,RupDist,JBDist,XDist,Azimuth,RupDepth,Strike,Dip,Rake
527,527,2019,6,14,0,19,11,15.0,-30.09,-72.06,6.3,C14O,-30.12311172485352,-70.49063110351562,0.0131,0.0131,0.0132,0.0134,0.0139,0.0158,0.0164,0.0233,0.0259,0.0309,0.0261,0.0447,0.0577,0.0184,0.00775,0.00281,0.00133,0.000582,0.000434,0.000274,0.000173,-12300.0,-12345,-12345,-12345.0,sIV,C,Soil,Inter,152.05,152.36,151.5,196.26,91.78,7.853332946423813,1.0,21.0,88.0
528,528,2019,6,14,0,19,11,15.0,-30.09,-72.06,6.3,C19O,-30.09342384338379,-71.36895751953125,-12300.0,-12300.0,-12300.0,-12300.0,-12300.0,-12300.0,-12300.0,-12300.0,-12300.0,-12300.0,-12300.0,-12300.0,-12300.0,-12300.0,-12300.0,-12300.0,-12300.0,-12300.0,-12300.0,-12300.0,-12300.0,-12300.0,1106,0,-,sI,-,Rock,Inter,68.28,68.75,66.83,98.63,90.5,7.853332946423813,1.0,21.0,88.0
529,529,2019,6,14,0,19,11,15.0,-30.09,-72.06,6.3,A22C,-28.75486183166504,-70.4855728149414,0.00532,0.00532,0.00534,0.0055,0.00606,0.00714,0.00832,0.0104,0.0102,0.0125,0.0192,0.0153,0.00869,0.00451,0.003,0.0014,0.00157,0.000681,0.000285,0.000253,-12300.0,-12300.0,-12345,-12345,-12345.0,sIII,B,Soil,Inter,213.23,210.15,209.53,194.17,46.3,7.853332946423813,1.0,21.0,88.0
530,530,2019,6,14,0,19,11,15.0,-30.09,-72.06,6.3,C33O,-29.910722732543945,-71.2508316040039,0.00983,0.00984,0.00987,0.00991,0.0102,0.0112,0.0129,0.0165,0.0273,0.0276,0.0295,0.0243,0.0177,0.0145,0.012,0.00513,0.00196,0.00106,0.000522,-12300.0,-12300.0,-12300.0,587,1,3.20,sIII,B,Rock,Inter,81.95,81.29,79.67,111.4,75.92,7.853332946423813,1.0,21.0,88.0
531,531,2019,6,14,0,19,11,15.0,-30.09,-72.06,6.3,C24O,-29.954605102539062,-71.30147552490234,0.0242,0.0242,0.0244,0.0249,0.0259,0.0317,0.0504,0.0865,0.0898,0.0761,0.0524,0.0452,0.0368,0.0204,0.0152,0.0102,0.00353,0.00139,0.000734,0.000557,-12300.0,-12300.0,433,3,0.77,-12345,-12345,-12345,Inter,76.19,75.78,74.04,105.86,78.6,7.853332946423813,1.0,21.0,88.0
533,533,2019,6,14,0,19,11,15.0,-30.09,-72.06,6.3,C20O,-29.968141555786133,-71.3373794555664,0.0159,0.0159,0.0162,0.0164,0.0181,0.0241,0.0355,0.031,0.049,0.06,0.0461,0.0393,0.045,0.0357,0.0128,0.00459,0.00291,0.00118,0.000641,0.000524,0.00051,0.000249,737,2,1.24,sV,C,Soil,Inter,72.57,72.23,70.4,101.9,79.21,7.853332946423813,1.0,21.0,88.0
534,534,2019,6,14,0,19,11,15.0,-30.09,-72.06,6.3,C26O,-30.25895118713379,-71.49040985107422,0.0143,0.0143,0.0144,0.015,0.0167,0.0192,0.0266,0.0362,0.0418,0.0405,0.038,0.0307,0.0322,0.0159,0.00767,0.00407,0.00262,0.00114,0.000841,0.000773,0.000518,0.00025,364,3,1.87,sIV,C,Soil,Inter,59.88,57.86,55.56,85.46,108.99,7.853332946423813,1.0,21.0,88.0
535,535,2019,6,14,0,19,11,15.0,-30.09,-72.06,6.3,C10O,-30.23390769958496,-71.08159637451172,0.00546,0.00546,0.00551,0.00594,0.00636,0.00741,0.0164,0.02,0.0177,0.0148,0.0143,0.0108,0.00931,0.00365,0.00207,0.00115,0.00104,0.000713,0.000498,-12300.0,-12300.0,-12300.0,-12345,-12345,-12345.0,sII,A,Rock,Inter,96.76,96.02,94.66,130.83,99.85,7.853332946423813,1.0,21.0,88.0
537,537,2019,6,14,0,19,11,15.0,-30.09,-72.06,6.3,C29O,-30.60112190246582,-71.20120239257812,0.00692,0.00692,0.00703,0.00723,0.00794,0.00797,0.0114,0.0142,0.0138,0.0161,0.0236,0.0227,0.0168,0.00905,0.00933,0.00274,0.00239,0.00139,0.000574,0.000356,-12300.0,-12300.0,799,1,1.10,-12345,-12345,-12345,Inter,101.26,95.23,93.85,118.25,124.67,7.853332946423813,1.0,21.0,88.0
538,538,2019,6,14,0,19,11,15.0,-30.09,-72.06,6.3,C13O,-30.57930374145508,-71.4945297241211,0.00589,0.00589,0.00591,0.00595,0.00606,0.00693,0.00816,0.0123,0.0128,0.0168,0.0176,0.0216,0.0143,0.0063,0.00387,0.00259,0.0024,0.00155,0.000675,0.000459,-12300.0,-12300.0,505,3,1.75,sIV,B,Soil,Inter,78.26,70.58,68.71,85.62,135.07,7.853332946423813,1.0,21.0,88.0
539,539,2019,6,11,5,0,54,52.5437,-18.87,-70.34,4.6,T11A,-19.31243705749512,-69.42727661132812,0.0113,0.0113,0.0118,0.0121,0.0155,0.0251,0.0417,0.0261,0.0272,0.0113,0.0111,0.00861,0.00428,0.00287,0.000935,0.000275,0.000126,4.92e-05,-12300.0,-12300.0,-12300.0,-12300.0,-12345,-12345,-12345.0,sV,B,Soil,Intra,119.94,119.94,107.81,101.41,117.17,52.5437,0.0,0.0,-90.0
540,540,2019,6,11,5,0,54,52.5437,-18.87,-70.34,4.6,A13P,-18.51881980895996,-70.17935180664062,0.0119,0.0119,0.0162,0.0224,0.0372,0.0342,0.0233,0.0142,0.00712,0.00405,0.00431,0.00166,0.00129,0.00112,0.000448,0.000168,7.96e-05,2.9e-05,-12300.0,-12300.0,-12300.0,-12300.0,531,1,1.30,-12345,-12345,-12345,Intra,67.52,67.52,42.4,17.85,23.58,52.5437,0.0,0.0,-90.0
542,542,2019,6,11,5,0,54,52.5437,-18.87,-70.34,4.6,A05P,-18.48636054992676,-70.300537109375,0.012,0.012,0.0126,0.0157,0.0307,0.0304,0.0416,0.0314,0.0146,0.0129,0.00865,0.00534,0.00285,0.00156,0.000989,0.000298,0.000156,6.57e-05,3.58e-05,2.24e-05,-12300.0,-12300.0,446,2,1.20,sVI,A,Soil,Intra,67.69,67.69,42.67,4.38,5.61,52.5437,0.0,0.0,-90.0
543,543,2019,6,11,5,0,54,52.5437,-18.87,-70.34,4.6,A19P,-18.4935245513916,-70.2990493774414,0.0187,0.0187,0.0218,0.0349,0.0492,0.0676,0.0369,0.0176,0.0107,0.00754,0.00506,0.00318,0.00185,0.00069,0.000379,0.00016,9.01e-05,4.06e-05,2.21e-05,-12300.0,-12300.0,-12300.0,727,0,-,-12345,-12345,-12345,Intra,67.2,67.2,41.89,4.55,5.93,52.5437,0.0,0.0,-90.0
544,544,2019,6,11,5,0,54,52.5437,-18.87,-70.34,4.6,A09P,-18.48046112060547,-70.32495880126953,0.00591,0.0059,0.00645,0.00722,0.00883,0.0139,0.0143,0.0176,0.0116,0.0141,0.0144,0.00758,0.00507,0.00163,0.000795,0.000295,0.000147,6.34e-05,3.39e-05,2.1e-05,-12300.0,-12300.0,1054,0,-,-12345,-12345,-12345,Intra,67.99,67.99,43.15,1.67,2.11,52.5437,0.0,0.0,-90.0
545,545,2019,6,11,5,0,54,52.5437,-18.87,-70.34,4.6,A16P,-19.16004180908203,-70.17967224121094,0.0338,0.0338,0.0357,0.0446,0.0772,0.101,0.0985,0.0606,0.0731,0.0225,0.0147,0.0101,0.00569,0.00209,0.00126,0.000463,0.000226,8.83e-05,4.73e-05,-12300.0,-12300.0,-12300.0,-12345,-12345,-12345.0,sII,C,Soil,Intra,63.85,63.85,36.27,17.81,152.29,52.5437,0.0,0.0,-90.0
546,546,2019,6,11,5,0,54,52.5437,-18.87,-70.34,4.6,A12P,-18.452606201171875,-70.06678009033203,0.0107,0.0107,0.0124,0.0198,0.0211,0.0295,0.0285,0.0218,0.0154,0.012,0.00991,0.00378,0.00307,0.00129,0.000657,0.000341,0.000143,-12300.0,-12300.0,-12300.0,-12300.0,-12300.0,560,1,2.20,-12345,-12345,-12345,Intra,75.67,75.67,54.46,30.36,32.0,52.5437,0.0,0.0,-90.0
548,548,2019,6,11,5,0,54,52.5437,-18.87,-70.34,4.6,T10A,-19.995433807373047,-69.76705169677734,0.00755,0.00754,0.00784,0.00901,0.016,0.024,0.023,0.013,0.0199,0.00987,0.00732,0.00491,0.00281,0.000601,0.000268,0.000119,6.76e-05,2.63e-05,-12300.0,-12300.0,-12300.0,-12300.0,336,2,4.01,sIII,B,Soil,Intra,147.99,147.99,138.35,63.66,154.32,52.5437,0.0,0.0,-90.0
549,549,2019,6,11,5,0,54,52.5437,-18.87,-70.34,4.6,A06P,-18.469697952270508,-70.29344940185547,0.00619,0.00618,0.00716,0.00955,0.0193,0.0275,0.0151,0.0134,0.00889,0.00634,0.00468,0.00284,0.00196,0.000938,0.000533,0.000147,7.36e-05,3.44e-05,1.86e-05,-12300.0,-12300.0,-12300.0,500,1,2.50,-12345,-12345,-12345,Intra,68.91,68.91,44.58,5.17,6.33,52.5437,0.0,0.0,-90.0
551,551,2019,6,5,16,19,42,83.0,-27.36,-70.23,5.4,A22C,-28.754863739013672,-70.48555755615234,0.0211,0.0211,0.0223,0.0267,0.054,0.0516,0.0656,0.0774,0.0334,0.0219,0.0164,0.0115,0.00567,0.00191,0.0012,0.000453,0.00026,0.000114,5.65e-05,3.35e-05,-12300.0,-12300.0,-12345,-12345,-12345.0,sIII,B,Soil,Intra,177.24,179.74,150.48,37.28,189.17,98.3,157.0,26.0,-138.0
552,552,2019,6,5,16,19,42,83.0,-27.36,-70.23,5.4,A16C,-26.24955177307129,-69.62559509277344,0.0165,0.0165,0.0183,0.0235,0.0374,0.037,0.053,0.0299,0.0131,0.0064,0.00391,0.00221,0.0014,0.000748,0.000365,0.00017,9.2e-05,4.1e-05,2.58e-05,1.07e-05,-12300.0,-12300.0,-12345,-12345,-12345.0,sII,B,Rock,Intra,160.12,171.72,140.8,58.27,26.17,98.3,157.0,26.0,-138.0
553,553,2019,6,5,16,19,42,83.0,-27.36,-70.23,5.4,A04C,-27.299575805664062,-70.41316986083984,-12300.0,-12300.0,-12300.0,-12300.0,-12300.0,-12300.0,-12300.0,-12300.0,-12300.0,-12300.0,-12300.0,-12300.0,-12300.0,-12300.0,-12300.0,-12300.0,-12300.0,-12300.0,-12300.0,-12300.0,-12300.0,-12300.0,534,3,1.13,-12345,-12345,-12345,Intra,85.22,102.71,29.78,29.24,290.23,98.3,157.0,26.0,-138.0
556,556,2019,6,5,16,19,42,83.0,-27.36,-70.23,5.4,A18C,-27.502609252929688,-70.88666534423828,-12300.0,-12300.0,-12300.0,-12300.0,-12300.0,-12300.0,-12300.0,-12300.0,-12300.0,-12300.0,-12300.0,-12300.0,-12300.0,-12300.0,-12300.0,-12300.0,-12300.0,-12300.0,-12300.0,-12300.0,-12300.0,-12300.0,1170,2,5.70,-12345,-12345,-12345,Intra,106.56,122.59,73.26,81.85,256.17,98.3,157.0,26.0,-138.0
557,557,2019,6,5,16,19,42,83.0,-27.36,-70.23,5.4,A06C,-27.349390029907227,-70.34778594970703,0.102,0.102,0.124,0.157,0.256,0.311,0.156,0.0811,0.057,0.0399,0.0283,0.0204,0.0124,0.00457,0.00322,0.00151,0.00091,0.000374,0.000229,0.000147,7.21e-05,4.18e-05,483,2,5.81,-12345,-12345,-12345,Intra,83.82,100.63,21.51,21.98,275.73,98.3,157.0,26.0,-138.0
558,558,2019,6,5,16,19,42,83.0,-27.36,-70.23,5.4,A28C,-27.4664306640625,-70.26539611816406,-12300.0,-12300.0,-12300.0,-12300.0,-12300.0,-12300.0,-12300.0,-12300.0,-12300.0,-12300.0,-12300.0,-12300.0,-12300.0,-12300.0,-12300.0,-12300.0,-12300.0,-12300.0,-12300.0,-12300.0,-12300.0,-12300.0,522,2,6.90,sIII,B,Soil,Intra,83.91,99.04,12.1,12.82,196.52,98.3,157.0,26.0,-138.0
562,562,2019,6,5,16,19,42,83.0,-27.36,-70.23,5.4,A24C,-29.09846305847168,-70.46080017089844,0.00696,0.00696,0.00743,0.00896,0.0207,0.0214,0.0214,0.0156,0.0143,0.0134,0.0107,0.00331,0.00141,0.000607,0.000489,0.000199,0.000102,4.92e-05,2.35e-05,1.44e-05,-12300.0,-12300.0,-12345,-12345,-12345.0,sIII,C,Soil,Intra,211.0,211.62,187.4,34.53,186.65,98.3,157.0,26.0,-138.0
563,563,2019,6,5,16,19,42,83.0,-27.36,-70.23,5.4,A30C,-27.0698184967041,-70.82041931152344,-12300.0,-12300.0,-12300.0,-12300.0,-12300.0,-12300.0,-12300.0,-12300.0,-12300.0,-12300.0,-12300.0,-12300.0,-12300.0,-12300.0,-12300.0,-12300.0,-12300.0,-12300.0,-12300.0,-12300.0,-12300.0,-12300.0,1572,0,-,-12345,-12345,-12345,Intra,106.51,125.16,77.47,74.49,298.66,98.3,157.0,26.0,-138.0
564,564,2019,6,5,16,19,42,83.0,-27.36,-70.23,5.4,A07C,-27.37405776977539,-70.31776428222656,-12300.0,-12300.0,-12300.0,-12300.0,-12300.0,-12300.0,-12300.0,-12300.0,-12300.0,-12300.0,-12300.0,-12300.0,-12300.0,-12300.0,-12300.0,-12300.0,-12300.0,-12300.0,-12300.0,-12300.0,-12300.0,-12300.0,441,3,2.51,-12345,-12345,-12345,Intra,83.47,99.88,17.71,18.64,259.81,98.3,157.0,26.0,-138.0
565,565,2019,6,5,16,19,42,83.0,-27.36,-70.23,5.4,A29C,-27.42175674438477,-70.25968933105469,-12300.0,-12300.0,-12300.0,-12300.0,-12300.0,-12300.0,-12300.0,-12300.0,-12300.0,-12300.0,-12300.0,-12300.0,-12300.0,-12300.0,-12300.0,-12300.0,-12300.0,-12300.0,-12300.0,-12300.0,-12300.0,-12300.0,622,3,3.80,-12345,-12345,-12345,Intra,83.33,98.9,10.88,12.19,203.22,98.3,157.0,26.0,-138.0
566,566,2019,6,5,16,19,42,83.0,-27.36,-70.23,5.4,A01C,-27.07051467895508,-70.82676696777344,0.0206,0.0206,0.0243,0.034,0.0668,0.0815,0.0557,0.0283,0.0168,0.00969,0.00884,0.00662,0.00355,0.00153,0.001,0.000458,0.000308,0.000162,8.03e-05,4.85e-05,-12300.0,-12300.0,749,0,-,-12345,-12345,-12345,Intra,106.83,125.47,77.97,75.2,298.35,98.3,157.0,26.0,-138.0
567,567,2019,6,5,16,19,42,83.0,-27.36,-70.23,5.4,A27C,-27.36710929870605,-70.3307113647461,0.093,0.0932,0.105,0.153,0.242,0.302,0.262,0.236,0.122,0.118,0.119,0.0566,0.0481,0.0127,0.00776,0.00292,0.00156,0.00059,0.00035,0.000225,-12300.0,-12300.0,473,2,6.70,sVI,B,Soil,Intra,83.6,100.15,19.18,20.08,265.46,98.3,157.0,26.0,-138.0
568,568,2019,6,5,16,19,42,83.0,-27.36,-70.23,5.4,A19C,-27.83037757873535,-70.1080093383789,-12300.0,-12300.0,-12300.0,-12300.0,-12300.0,-12300.0,-12300.0,-12300.0,-12300.0,-12300.0,-12300.0,-12300.0,-12300.0,-12300.0,-12300.0,-12300.0,-12300.0,-12300.0,-12300.0,-12300.0,-12300.0,-12300.0,507,3,2.50,sIV,A,Soil,Intra,98.75,107.93,44.56,4.67,167.02,98.3,157.0,26.0,-138.0
570,570,2019,6,5,16,19,42,83.0,-27.36,-70.23,5.4,A03C,-27.26164436340332,-70.7736587524414,-12300.0,-12300.0,-12300.0,-12300.0,-12300.0,-12300.0,-12300.0,-12300.0,-12300.0,-12300.0,-12300.0,-12300.0,-12300.0,-12300.0,-12300.0,-12300.0,-12300.0,-12300.0,-12300.0,-12300.0,-12300.0,-12300.0,648,3,6.71,-12345,-12345,-12345,Intra,99.52,117.55,64.47,69.29,281.32,98.3,157.0,26.0,-138.0
573,573,2019,6,5,16,19,42,83.0,-27.36,-70.23,5.4,A08C,-27.36035919189453,-70.3385009765625,-12300.0,-12300.0,-12300.0,-12300.0,-12300.0,-12300.0,-12300.0,-12300.0,-12300.0,-12300.0,-12300.0,-12300.0,-12300.0,-12300.0,-12300.0,-12300.0,-12300.0,-12300.0,-12300.0,-12300.0,-12300.0,-12300.0,2127,0,-,-12345,-12345,-12345,Intra,83.69,100.35,20.18,20.94,269.76,98.3,157.0,26.0,-138.0
574,574,2019,6,5,16,19,42,83.0,-27.36,-70.23,5.4,A05C,-27.361173629760746,-70.33991241455078,-12300.0,-12300.0,-12300.0,-12300.0,-12300.0,-12300.0,-12300.0,-12300.0,-12300.0,-12300.0,-12300.0,-12300.0,-12300.0,-12300.0,-12300.0,-12300.0,-12300.0,-12300.0,-12300.0,-12300.0,-12300.0,-12300.0,632,2,6.30,sIII,C,Soil,Intra,83.71,100.37,20.27,21.1,269.29,98.3,157.0,26.0,-138.0
617,617,2018,11,1,22,53,4,19.619,-27.21,-71.22,4.6,A29C,-27.421770095825195,-70.25968933105469,-12300.0,-12300.0,-12300.0,-12300.0,-12300.0,-12300.0,-12300.0,-12300.0,-12300.0,-12300.0,-12300.0,-12300.0,-12300.0,-12300.0,-12300.0,-12300.0,-12300.0,-12300.0,-12300.0,-12300.0,-12300.0,-12300.0,622,3,3.80,-12345,-12345,-12345,Inter,99.85,99.85,97.9,106.7,104.09,19.619,0.0,0.0,105.0
618,618,2018,11,1,22,53,4,19.619,-27.21,-71.22,4.6,A05C,-27.361196517944336,-70.33992004394531,0.0141,0.0141,0.0144,0.0149,0.0172,0.023,0.0294,0.0584,0.0364,0.017,0.00836,0.00402,0.00223,0.000891,0.000491,-12300.0,-12300.0,-12300.0,-12300.0,-12300.0,-12300.0,-12300.0,632,2,6.30,sIII,C,Soil,Inter,90.87,90.87,88.73,97.79,101.09,19.619,0.0,0.0,105.0
619,619,2018,11,1,22,53,4,19.619,-27.21,-71.22,4.6,A28C,-27.466442108154297,-70.26541137695312,-12300.0,-12300.0,-12300.0,-12300.0,-12300.0,-12300.0,-12300.0,-12300.0,-12300.0,-12300.0,-12300.0,-12300.0,-12300.0,-12300.0,-12300.0,-12300.0,-12300.0,-12300.0,-12300.0,-12300.0,-12300.0,-12300.0,522,2,6.90,sIII,B,Soil,Inter,100.58,100.58,98.64,106.06,106.96,19.619,0.0,0.0,105.0
620,620,2018,11,1,22,53,4,19.619,-27.21,-71.22,4.6,A04C,-27.29958724975586,-70.41319274902344,0.00927,0.00927,0.00958,0.00992,0.0117,0.0175,0.0194,0.035,0.0196,0.0139,0.0128,0.00687,0.00397,0.0013,0.000544,0.000179,0.000114,-12300.0,-12300.0,-12300.0,-12300.0,-12300.0,534,3,1.13,-12345,-12345,-12345,Inter,82.87,82.87,80.51,89.64,97.27,19.619,0.0,0.0,105.0
621,621,2018,11,1,22,53,4,19.619,-27.21,-71.22,4.6,A18C,-27.50261878967285,-70.88668823242188,0.00677,0.00676,0.00685,0.00685,0.00832,0.0105,0.0115,0.0174,0.0196,0.0138,0.00866,0.00577,0.00375,0.00146,0.000704,0.000305,0.000181,8.18e-05,4.7e-05,3.03e-05,-12300.0,-12300.0,1170,2,5.70,-12345,-12345,-12345,Inter,50.24,50.24,46.25,37.03,134.59,19.619,0.0,0.0,105.0
622,622,2018,11,1,22,53,4,19.619,-27.21,-71.22,4.6,A27C,-27.36712455749512,-70.33072662353516,0.0149,0.0149,0.0158,0.0159,0.0174,0.0232,0.0316,0.0385,0.0476,0.0538,0.0216,0.0134,0.0071,0.00228,0.000979,0.000387,0.000222,-12300.0,-12300.0,-12300.0,-12300.0,-12300.0,473,2,6.70,sVI,B,Soil,Inter,91.86,91.86,89.74,98.81,101.39,19.619,0.0,0.0,105.0
624,624,2018,11,1,22,53,4,19.619,-27.21,-71.22,4.6,A07C,-27.374067306518555,-70.31780242919922,0.0128,0.0128,0.0129,0.0133,0.0145,0.0181,0.0317,0.0381,0.038,0.0302,0.0463,0.026,0.00898,0.00284,0.00142,0.000562,0.000322,0.000135,-12300.0,-12300.0,-12300.0,-12300.0,441,3,2.51,-12345,-12345,-12345,Inter,93.23,93.23,91.15,100.24,101.71,19.619,0.0,0.0,105.0
625,625,2018,11,1,22,53,4,19.619,-27.21,-71.22,4.6,A06C,-27.349390029907227,-70.34780883789062,0.00733,0.00733,0.00766,0.00785,0.0112,0.0151,0.0203,0.0153,0.0204,0.0126,0.00752,0.00595,0.00261,0.000927,0.000386,0.000155,8.48e-05,4.12e-05,-12300.0,-12300.0,-12300.0,-12300.0,483,2,5.81,-12345,-12345,-12345,Inter,89.89,89.89,87.72,96.91,100.34,19.619,0.0,0.0,105.0
627,627,2018,11,1,22,53,4,19.619,-27.21,-71.22,4.6,A03C,-27.26165199279785,-70.77369689941406,0.00624,0.00623,0.00652,0.00666,0.0106,0.0136,0.0165,0.0236,0.0191,0.0137,0.00989,0.0044,0.00238,0.000965,0.000473,0.000195,0.000132,4.58e-05,2.71e-05,1.57e-05,-12300.0,-12300.0,648,3,6.71,-12345,-12345,-12345,Inter,48.7,48.7,44.57,49.59,97.48,19.619,0.0,0.0,105.0
630,630,2019,3,10,13,8,2,42.9036,-25.79,-70.43,4.8,A16C,-26.24951934814453,-69.6255874633789,0.0109,0.0109,0.013,0.0175,0.0311,0.0373,0.0227,0.0198,0.00925,0.00481,0.00324,0.00221,0.00137,0.00047,0.000261,0.000113,6.2e-05,2.48e-05,1.48e-05,9.46e-06,4.04e-06,-12300.0,-12345,-12345,-12345.0,sII,B,Rock,Inter,104.48,104.48,95.27,89.38,122.48,42.9036,0.0,0.0,105.0
632,632,2019,3,10,13,8,2,42.9036,-25.79,-70.43,4.8,A05C,-27.361167907714844,-70.33992004394531,0.0065,0.00649,0.00689,0.00858,0.0112,0.0157,0.0204,0.0196,0.0112,0.00489,0.0025,0.0018,0.0011,0.000524,0.000245,8.91e-05,5.72e-05,1.98e-05,1.13e-05,-12300.0,-12300.0,-12300.0,632,2,6.30,sIII,C,Soil,Inter,179.51,179.51,174.31,10.01,177.07,42.9036,0.0,0.0,105.0
633,633,2018,9,2,18,12,11,83.9773,-28.33,-70.49,4.5,A07C,-27.37405204772949,-70.3177719116211,0.0128,0.0128,0.0149,0.0205,0.0412,0.0337,0.0427,0.0258,0.0224,0.019,0.0147,0.00518,0.00349,0.00094,0.000429,0.000186,9.84e-05,3.71e-05,2.01e-05,-12300.0,-12300.0,-12300.0,441,3,2.51,-12345,-12345,-12345,Intra,136.24,136.24,107.28,19.14,9.14,83.9773,0.0,0.0,-90.0
634,634,2018,9,2,18,12,11,83.9773,-28.33,-70.49,4.5,A19C,-27.830394744873047,-70.1080093383789,-12300.0,-12300.0,-12300.0,-12300.0,-12300.0,-12300.0,-12300.0,-12300.0,-12300.0,-12300.0,-12300.0,-12300.0,-12300.0,-12300.0,-12300.0,-12300.0,-12300.0,-12300.0,-12300.0,-12300.0,-12300.0,-12300.0,507,3,2.50,sIV,A,Soil,Intra,107.37,107.37,66.9,42.44,34.23,83.9773,0.0,0.0,-90.0
635,635,2018,9,2,18,12,11,83.9773,-28.33,-70.49,4.5,A03C,-27.26165771484375,-70.77366638183594,0.00594,0.00593,0.00751,0.0105,0.0161,0.0128,0.0134,0.0168,0.0141,0.00816,0.00325,0.0019,0.00134,0.000412,0.000225,0.000145,6.63e-05,2.32e-05,1.22e-05,7.26e-06,-12300.0,-12300.0,648,3,6.71,-12345,-12345,-12345,Intra,147.82,147.82,121.65,31.52,346.65,83.9773,0.0,0.0,-90.0
636,636,2018,9,2,18,12,11,83.9773,-28.33,-70.49,4.5,A29C,-27.421764373779297,-70.25967407226562,-12300.0,-12300.0,-12300.0,-12300.0,-12300.0,-12300.0,-12300.0,-12300.0,-12300.0,-12300.0,-12300.0,-12300.0,-12300.0,-12300.0,-12300.0,-12300.0,-12300.0,-12300.0,-12300.0,-12300.0,-12300.0,-12300.0,622,3,3.80,-12345,-12345,-12345,Intra,133.03,133.03,103.17,25.59,12.75,83.9773,0.0,0.0,-90.0
638,638,2018,9,2,18,12,11,83.9773,-28.33,-70.49,4.5,A23C,-28.97295188903809,-70.21570587158203,0.0284,0.0284,0.0329,0.0563,0.0887,0.115,0.0587,0.0283,0.0168,0.0117,0.00652,0.00275,0.00187,0.000732,0.000415,0.00017,8.92e-05,3.48e-05,-12300.0,-12300.0,-12300.0,-12300.0,-12345,-12345,-12345.0,sIV,B,Soil,Intra,113.35,113.35,76.14,30.48,159.44,83.9773,0.0,0.0,-90.0
639,639,2018,9,2,18,12,11,83.9773,-28.33,-70.49,4.5,A25C,-28.95534324645996,-70.89569854736328,0.00897,0.00897,0.0217,0.0254,0.0176,0.0216,0.0196,0.0152,0.00657,0.00332,0.00253,0.00154,0.00103,0.000373,0.000204,7.76e-05,3.95e-05,-12300.0,-12300.0,-12300.0,-12300.0,-12300.0,-12345,-12345,-12345.0,sII,A,Soil,Intra,115.88,115.88,79.85,45.08,209.69,83.9773,0.0,0.0,-90.0
641,641,2018,9,2,18,12,11,83.9773,-28.33,-70.49,4.5,A06C,-27.34938621520996,-70.34779357910156,0.0125,0.0126,0.0163,0.0299,0.0488,0.0281,0.023,0.0136,0.0104,0.00643,0.00371,0.00141,0.000751,0.000327,0.000205,9.92e-05,5.58e-05,1.92e-05,1.04e-05,-12300.0,-12300.0,-12300.0,483,2,5.81,-12345,-12345,-12345,Intra,138.05,138.05,109.57,15.8,7.38,83.9773,0.0,0.0,-90.0
642,642,2018,9,2,18,12,11,83.9773,-28.33,-70.49,4.5,A22C,-28.75487518310547,-70.48554229736328,0.0204,0.0204,0.0243,0.0378,0.0699,0.0587,0.0637,0.0321,0.0326,0.0149,0.00919,0.00476,0.00305,0.00127,0.000664,0.000255,0.000128,4.87e-05,2.57e-05,1.61e-05,-12300.0,-12300.0,-12345,-12345,-12345.0,sIII,B,Soil,Intra,96.28,96.28,47.09,0.5,179.47,83.9773,0.0,0.0,-90.0
