,Unnamed: 0,year,month,days,hour,minute,second,depth,latitude,longitude,magnitude,station,station_latitude,station_longitude,pga,sa0.01,sa0.02,sa0.03,sa0.05,sa0.07,sa0.1,sa0.15,sa0.2,sa0.25,sa0.3,sa0.4,sa0.5,sa0.75,sa1,sa1.5,sa2,sa3,sa4,sa5,sa7.5,sa10,Vs30,HVSRamp,fpeak,T*,P*,Rock/Soil,event_type,HypDist,RupDist,JBDist,XDist,Azimuth,RupDepth,Strike,Dip,Rake
372,372,2023,3,21,17,38,13,64.0,-33.61,-71.33,5.5,M15L,-35.339698791503906,-72.40225219726562,0.00466,0.00466,0.00469,0.0047,0.00478,0.00514,0.00604,0.00993,0.0142,0.0232,0.0218,0.00846,0.0045,0.00195,0.00076,0.000421,0.000333,0.000147,5.18e-05,3.64e-05,-12300.0,-12300.0,308,1,6.74,-12345,-12345,-12345,Intra,224.98,224.98,215.68,119.14,206.87,64.0,0.0,0.0,-90.0
373,373,2023,3,21,17,38,13,64.0,-33.61,-71.33,5.5,M03L,-34.975887298583984,-71.23123168945312,0.0109,0.0109,0.0122,0.0179,0.0239,0.0283,0.0309,0.032,0.0169,0.015,0.0154,0.00679,0.0032,0.0014,0.000764,0.000507,0.000431,0.000219,0.000121,-12300.0,-12300.0,-12300.0,715,0,-,sIII,A,Soil,Intra,164.73,164.73,151.79,10.97,176.59,64.0,0.0,0.0,-90.0
377,377,2023,3,21,17,38,13,64.0,-33.61,-71.33,5.5,R10M,-33.57854080200195,-70.55146789550781,0.0447,0.0447,0.0463,0.0648,0.108,0.091,0.143,0.16,0.0802,0.0451,0.0406,0.0199,0.0112,0.00409,0.00241,0.00193,0.00147,0.000532,0.000245,-12300.0,-12300.0,-12300.0,435,1,3.56,-12345,-12345,-12345,Intra,96.59,96.59,72.35,86.5,87.45,64.0,0.0,0.0,-90.0
379,379,2023,3,21,17,38,13,64.0,-33.61,-71.33,5.5,V09A,-33.048179626464844,-71.60447692871094,-12300.0,-12300.0,-12300.0,-12300.0,-12300.0,-12300.0,-12300.0,-12300.0,-12300.0,-12300.0,-12300.0,-12300.0,-12300.0,-12300.0,-12300.0,-12300.0,-12300.0,-12300.0,-12300.0,-12300.0,-12300.0,-12300.0,212,2,1.75,sIV,B,Soil,Intra,92.91,92.91,67.35,30.5,337.63,64.0,0.0,0.0,-90.0
467,467,2019,6,3,8,42,13,43.4,-19.68,-70.46,5.2,A19P,-18.49350929260254,-70.299072265625,0.0115,0.0115,0.0137,0.0172,0.0265,0.0429,0.028,0.0242,0.0175,0.0115,0.00793,0.00318,0.00275,0.00113,0.000668,0.000268,0.000144,5.93e-05,4.02e-05,2.41e-05,9.58e-06,-12300.0,727,0,-,-12345,-12345,-12345,Inter,139.35,156.26,134.29,23.44,7.37,79.9,165.0,25.0,-80.0
468,468,2019,6,3,8,42,13,43.4,-19.68,-70.46,5.2,T10A,-19.99543190002441,-69.76708221435547,0.0947,0.0947,0.109,0.13,0.213,0.284,0.381,0.145,0.185,0.0705,0.0395,0.0321,0.0189,0.0119,0.00694,0.0021,0.00106,0.000422,0.000219,0.000141,-12300.0,-12300.0,336,2,4.01,sIII,B,Soil,Inter,91.5,116.55,84.85,82.55,115.81,79.9,165.0,25.0,-80.0
469,469,2019,6,3,8,42,13,43.4,-19.68,-70.46,5.2,T03A,-20.230302810668945,-70.14588928222656,0.0377,0.0377,0.0406,0.0462,0.0708,0.086,0.14,0.0638,0.0263,0.0166,0.0154,0.016,0.0131,0.00629,0.0037,0.0013,0.000705,0.000275,0.00015,9.63e-05,-12300.0,-12300.0,613,1,8.95,sII,C,Soil,Inter,81.71,106.84,70.92,40.46,151.7,79.9,165.0,25.0,-80.0
470,470,2019,6,3,8,42,13,43.4,-19.68,-70.46,5.2,A07P,-18.445920944213867,-70.29290008544922,0.00784,0.00784,0.00881,0.0136,0.0188,0.0173,0.0283,0.0177,0.013,0.00813,0.00968,0.00371,0.00289,0.00206,0.00148,0.000359,0.000184,7.68e-05,4.14e-05,2.59e-05,-12300.0,-12300.0,560,1,1.20,-12345,-12345,-12345,Inter,144.41,160.84,139.59,24.12,7.36,79.9,165.0,25.0,-80.0
471,471,2019,6,3,8,42,13,43.4,-19.68,-70.46,5.2,T13A,-20.49631118774414,-69.33747863769531,0.017,0.017,0.018,0.0221,0.0301,0.0453,0.0748,0.0423,0.0198,0.0124,0.0105,0.00828,0.00545,0.00328,0.00166,0.000746,0.000349,0.000137,7.94e-05,4.68e-05,-12300.0,-12300.0,378,1,8.65,sIV,B,Soil,Inter,154.38,171.43,151.67,130.28,127.78,79.9,165.0,25.0,-80.0
472,472,2019,6,3,8,42,13,43.4,-19.68,-70.46,5.2,T09A,-19.595741271972656,-70.21087646484375,0.107,0.108,0.178,0.344,0.319,0.141,0.0712,0.0466,0.0465,0.0334,0.0253,0.0138,0.0123,0.00438,0.00247,0.000998,0.000517,0.000178,9.47e-05,6.54e-05,-12300.0,-12300.0,1584,0,-,sI,-,Rock,Inter,51.51,86.47,33.06,33.24,70.4,79.9,165.0,25.0,-80.0
473,473,2019,6,3,8,42,13,43.4,-19.68,-70.46,5.2,T19A,-20.28731918334961,-70.10457611083984,-12300.0,-12300.0,-12300.0,-12300.0,-12300.0,-12300.0,-12300.0,-12300.0,-12300.0,-12300.0,-12300.0,-12300.0,-12300.0,-12300.0,-12300.0,-12300.0,-12300.0,-12300.0,-12300.0,-12300.0,-12300.0,-12300.0,822,0,-,-12345,-12345,-12345,Inter,88.25,112.06,78.57,45.05,151.11,79.9,165.0,25.0,-80.0
474,474,2019,6,3,8,42,13,43.4,-19.68,-70.46,5.2,A12P,-18.452600479125977,-70.0667953491211,0.0112,0.0112,0.012,0.0133,0.0189,0.0307,0.0259,0.0274,0.029,0.0148,0.0116,0.00651,0.00409,0.00464,0.00225,0.00105,0.000727,0.000195,0.000118,7.2e-05,-12300.0,-12300.0,560,1,2.20,-12345,-12345,-12345,Inter,148.51,165.29,144.7,49.24,17.01,79.9,165.0,25.0,-80.0
475,475,2019,6,3,8,42,13,43.4,-19.68,-70.46,5.2,T12A,-20.070650100708008,-69.21721649169922,0.0186,0.0186,0.022,0.0299,0.0331,0.0517,0.0648,0.0348,0.0154,0.00887,0.00664,0.00583,0.00553,0.003,0.00185,0.000611,0.000311,0.000146,7.54e-05,4.71e-05,1.82e-05,-12300.0,-12345,-12345,-12345.0,sIII,A,Soil,Inter,143.85,162.76,141.79,143.64,108.59,79.9,165.0,25.0,-80.0
476,476,2019,6,3,8,42,13,43.4,-19.68,-70.46,5.2,T16A,-20.53956413269043,-70.17720031738281,-12300.0,-12300.0,-12300.0,-12300.0,-12300.0,-12300.0,-12300.0,-12300.0,-12300.0,-12300.0,-12300.0,-12300.0,-12300.0,-12300.0,-12300.0,-12300.0,-12300.0,-12300.0,-12300.0,-12300.0,-12300.0,-12300.0,1545,0,-,-12345,-12345,-12345,Inter,108.69,128.22,100.28,36.98,162.78,79.9,165.0,25.0,-80.0
477,477,2019,6,3,8,42,13,43.4,-19.68,-70.46,5.2,A15P,-18.47221946716309,-70.3128662109375,0.00592,0.00592,0.00601,0.00623,0.00675,0.0106,0.0116,0.0137,0.0179,0.0133,0.0116,0.00722,0.00509,0.00288,0.00254,0.000647,0.000275,0.000108,5.15e-05,3.32e-05,1.53e-05,-12300.0,390,2,1.10,-12345,-12345,-12345,Inter,141.41,158.07,136.39,21.9,6.63,79.9,165.0,25.0,-80.0
478,478,2019,6,3,8,42,13,43.4,-19.68,-70.46,5.2,T14A,-20.29449844360352,-70.1276626586914,0.0097,0.00969,0.0121,0.0138,0.03,0.0356,0.027,0.0173,0.0109,0.0115,0.00986,0.00971,0.00879,0.00515,0.00245,0.000807,0.000424,0.000193,0.000113,7.39e-05,-12300.0,-12300.0,1205,1,1.78,-12345,-12345,-12345,Inter,87.87,111.64,77.97,42.48,152.98,79.9,165.0,25.0,-80.0
479,479,2019,6,3,8,42,13,43.4,-19.68,-70.46,5.2,T06A,-20.2142391204834,-70.1378402709961,0.0228,0.0228,0.0269,0.0367,0.067,0.0789,0.0451,0.0214,0.0119,0.0132,0.0103,0.00895,0.00965,0.00602,0.00307,0.00122,0.000556,0.000214,0.000122,7.83e-05,3.66e-05,-12300.0,1263,0,-,sVI,A,Soil,Inter,80.74,106.16,69.9,41.35,150.36,79.9,165.0,25.0,-80.0
480,480,2019,6,3,8,42,13,43.4,-19.68,-70.46,5.2,T20A,-19.924375534057617,-69.51192474365234,0.0968,0.0969,0.104,0.107,0.129,0.171,0.295,0.187,0.236,0.103,0.0495,0.0296,0.0189,0.00737,0.00368,0.00205,0.00124,0.000417,0.000213,0.000126,5.22e-05,-12300.0,517,2,6.50,-12345,-12345,-12345,Inter,111.73,134.14,107.74,110.9,105.39,79.9,165.0,25.0,-80.0
481,481,2019,6,3,8,42,13,43.4,-19.68,-70.46,5.2,T15A,-20.2392807006836,-70.05390167236328,0.0941,0.0939,0.101,0.119,0.203,0.348,0.248,0.0728,0.0287,0.0189,0.0156,0.00965,0.00556,0.00361,0.00306,0.00123,0.0005,0.000201,0.000101,5.75e-05,2.46e-05,-12300.0,1003,0,-,-12345,-12345,-12345,Inter,86.74,111.18,77.31,50.68,145.6,79.9,165.0,25.0,-80.0
482,482,2019,6,3,8,42,13,43.4,-19.68,-70.46,5.2,T07A,-20.256235122680664,-69.78600311279297,0.0513,0.0513,0.0528,0.0589,0.107,0.149,0.143,0.135,0.0572,0.0378,0.0399,0.031,0.0161,0.00419,0.00222,0.000987,0.000539,0.000216,-12300.0,-12300.0,-12300.0,-12300.0,326,3,2.87,sIV,C,Soil,Inter,104.54,126.71,98.34,80.44,132.24,79.9,165.0,25.0,-80.0
483,483,2019,6,3,8,42,13,43.4,-19.68,-70.46,5.2,A05P,-18.48634910583496,-70.30055236816406,0.011,0.011,0.0114,0.0124,0.0173,0.0237,0.034,0.0342,0.0297,0.0242,0.0122,0.0051,0.0045,0.00278,0.00152,0.000428,0.000234,0.00011,4.8e-05,3.23e-05,1.19e-05,-12300.0,446,2,1.20,sVI,A,Soil,Inter,140.08,156.91,135.05,23.27,7.26,79.9,165.0,25.0,-80.0
485,485,2019,6,3,8,42,13,43.4,-19.68,-70.46,5.2,T05A,-20.209766387939453,-70.15020751953125,-12300.0,-12300.0,-12300.0,-12300.0,-12300.0,-12300.0,-12300.0,-12300.0,-12300.0,-12300.0,-12300.0,-12300.0,-12300.0,-12300.0,-12300.0,-12300.0,-12300.0,-12300.0,-12300.0,-12300.0,-12300.0,-12300.0,1020,0,-,sIII,A,Soil,Inter,79.84,105.42,68.77,39.98,151.11,79.9,165.0,25.0,-80.0
486,486,2019,6,3,8,42,13,43.4,-19.68,-70.46,5.2,T04A,-20.23906135559082,-70.1332778930664,-12300.0,-12300.0,-12300.0,-12300.0,-12300.0,-12300.0,-12300.0,-12300.0,-12300.0,-12300.0,-12300.0,-12300.0,-12300.0,-12300.0,-12300.0,-12300.0,-12300.0,-12300.0,-12300.0,-12300.0,-12300.0,-12300.0,1305,0,-,sIII,A,Soil,Inter,82.97,107.86,72.45,41.86,151.13,79.9,165.0,25.0,-80.0
487,487,2019,6,3,8,42,13,43.4,-19.68,-70.46,5.2,A16P,-19.1600284576416,-70.1796875,-12300.0,-12300.0,-12300.0,-12300.0,-12300.0,-12300.0,-12300.0,-12300.0,-12300.0,-12300.0,-12300.0,-12300.0,-12300.0,-12300.0,-12300.0,-12300.0,-12300.0,-12300.0,-12300.0,-12300.0,-12300.0,-12300.0,-12345,-12345,-12345.0,sII,C,Soil,Inter,77.87,105.02,68.16,36.7,27.14,79.9,165.0,25.0,-80.0
488,488,2019,6,3,8,42,13,43.4,-19.68,-70.46,5.2,A13P,-18.51881599426269,-70.17935180664062,-12300.0,-12300.0,-12300.0,-12300.0,-12300.0,-12300.0,-12300.0,-12300.0,-12300.0,-12300.0,-12300.0,-12300.0,-12300.0,-12300.0,-12300.0,-12300.0,-12300.0,-12300.0,-12300.0,-12300.0,-12300.0,-12300.0,531,1,1.30,-12345,-12345,-12345,Inter,138.84,156.21,134.23,36.74,12.99,79.9,165.0,25.0,-80.0
489,489,2019,6,3,8,42,13,43.4,-19.68,-70.46,5.2,T11A,-19.312435150146484,-69.42729187011719,0.0565,0.0565,0.0584,0.0608,0.0766,0.0902,0.156,0.158,0.105,0.114,0.0455,0.0276,0.0165,0.015,0.0117,0.00288,0.00115,-12300.0,-12300.0,-12300.0,-12300.0,-12300.0,-12345,-12345,-12345.0,sV,B,Soil,Inter,123.66,145.08,121.1,120.3,69.6,79.9,165.0,25.0,-80.0
490,490,2019,6,3,8,42,13,43.4,-19.68,-70.46,5.2,T08A,-20.26999855041504,-70.09415435791016,0.0282,0.0282,0.0316,0.0448,0.0712,0.118,0.0677,0.0266,0.0177,0.0191,0.0193,0.0192,0.0144,0.00868,0.00407,0.00125,0.00067,0.000275,0.000155,9.95e-05,4.46e-05,-12300.0,987,0,-,sIV,A,Soil,Inter,87.27,111.36,77.57,46.2,149.68,79.9,165.0,25.0,-80.0
492,492,2019,6,3,8,42,13,43.4,-19.68,-70.46,5.2,A09P,-18.480457305908203,-70.3249740600586,0.00576,0.00576,0.00611,0.00626,0.00755,0.00836,0.0129,0.0145,0.0157,0.0172,0.0126,0.00799,0.00492,0.00196,0.000938,0.000286,0.000168,7.64e-05,4.08e-05,2.48e-05,-12300.0,-12300.0,1054,0,-,-12345,-12345,-12345,Inter,140.41,157.13,135.3,20.56,6.13,79.9,165.0,25.0,-80.0
493,493,2019,6,3,8,42,13,43.4,-19.68,-70.46,5.2,A06P,-18.469715118408203,-70.29344177246094,0.00637,0.00637,0.00695,0.00845,0.0142,0.0203,0.0196,0.0131,0.0115,0.0127,0.00884,0.00533,0.00316,0.00159,0.000913,0.000316,0.000147,7.19e-05,4.46e-05,-12300.0,-12300.0,-12300.0,500,1,2.50,-12345,-12345,-12345,Inter,141.91,158.59,136.99,24.06,7.48,79.9,165.0,25.0,-80.0
494,494,2019,6,16,22,50,45,191.4,-24.12,-66.91,5.3,A02F,-23.101333618164062,-70.44507598876953,0.002,0.002,0.00204,0.00331,0.00353,0.00475,0.0103,0.00338,0.00277,0.0019,0.0012,0.00107,0.00101,0.000597,0.00042,0.000247,0.000183,5.39e-05,3.96e-05,-12300.0,-12300.0,-12300.0,-12345,-12345,-12345.0,sV,C,Rock,Deep,423.68,423.68,377.99,392.78,286.65,191.4,0.0,0.0,-400.0
498,498,2019,6,20,1,23,27,156.1,-33.57,-68.91,5.5,R12M,-33.388668060302734,-70.62157440185547,0.0112,0.0112,0.0119,0.0134,0.0126,0.0149,0.0151,0.0267,0.028,0.0256,0.0228,0.0222,0.0203,0.0182,0.0106,0.00202,0.000992,0.000428,0.000234,0.000136,-12300.0,-12300.0,267,3,1.50,sV,C,Soil,Intra,223.78,235.1,169.52,199.06,276.73,162.9,248.0,72.0,-40.0
499,499,2019,6,20,1,23,27,156.1,-33.57,-68.91,5.5,R07M,-33.36720657348633,-70.68976593017578,0.0106,0.0106,0.0128,0.013,0.0123,0.0132,0.0152,0.0217,0.0257,0.028,0.0251,0.0365,0.0257,0.0147,0.00846,0.00394,0.00154,0.000493,0.00022,-12300.0,-12300.0,-12300.0,271,2,0.93,-12345,-12345,-12345,Intra,228.57,239.97,176.21,206.64,277.25,162.9,248.0,72.0,-40.0
500,500,2019,6,20,1,23,27,156.1,-33.57,-68.91,5.5,V15A,-32.9149284362793,-71.23247528076172,0.00645,0.00645,0.00655,0.00739,0.00893,0.00887,0.0098,0.0178,0.0238,0.0238,0.0236,0.0133,0.00645,0.00244,0.00108,0.000441,0.00028,0.000115,6.34e-05,4.62e-05,-12300.0,-12300.0,323,3,2.05,-12345,-12345,-12345,Intra,276.57,289.49,239.3,266.94,287.92,162.9,248.0,72.0,-40.0
501,501,2019,6,20,1,23,27,156.1,-33.57,-68.91,5.5,C14O,-30.12303733825684,-70.49081420898438,-12300.0,-12300.0,-12300.0,-12300.0,-12300.0,-12300.0,-12300.0,-12300.0,-12300.0,-12300.0,-12300.0,-12300.0,-12300.0,-12300.0,-12300.0,-12300.0,-12300.0,-12300.0,-12300.0,-12300.0,-12300.0,-12300.0,-12345,-12345,-12345.0,sIV,C,Soil,Intra,439.12,454.71,424.53,184.53,338.2,162.9,248.0,72.0,-40.0
503,503,2019,6,20,1,23,27,156.1,-33.57,-68.91,5.5,C23O,-31.783763885498047,-70.96978759765625,0.0109,0.0109,0.0115,0.0157,0.026,0.0248,0.0296,0.0284,0.0197,0.019,0.0185,0.0166,0.00775,0.00213,0.00113,0.000657,0.000287,0.000136,-12300.0,-12300.0,-12300.0,-12300.0,751,3,2.10,-12345,-12345,-12345,Intra,317.68,333.14,290.59,237.75,315.16,162.9,248.0,72.0,-40.0
504,504,2019,6,20,1,23,27,156.1,-33.57,-68.91,5.5,C24O,-29.954614639282227,-71.30148315429688,-12300.0,-12300.0,-12300.0,-12300.0,-12300.0,-12300.0,-12300.0,-12300.0,-12300.0,-12300.0,-12300.0,-12300.0,-12300.0,-12300.0,-12300.0,-12300.0,-12300.0,-12300.0,-12300.0,-12300.0,-12300.0,-12300.0,433,3,0.77,-12345,-12345,-12345,Intra,486.17,501.88,474.71,274.61,329.89,162.9,248.0,72.0,-40.0
506,506,2019,6,20,1,23,27,156.1,-33.57,-68.91,5.5,C32O,-30.854846954345703,-70.70736694335938,0.00554,0.00554,0.00575,0.00744,0.00794,0.0137,0.0181,0.0188,0.0153,0.0135,0.00779,0.00566,0.00513,0.00236,0.00131,0.000659,0.000274,0.000131,-12300.0,-12300.0,-12300.0,-12300.0,578,1,6.51,-12345,-12345,-12345,Intra,379.1,394.91,359.75,208.59,330.15,162.9,248.0,72.0,-40.0
507,507,2019,6,20,1,23,27,156.1,-33.57,-68.91,5.5,C20O,-29.968141555786133,-71.33740234375,0.00541,0.00542,0.00578,0.00598,0.0066,0.00916,0.0156,0.0167,0.0161,0.0126,0.0127,0.00683,0.00614,0.00421,0.0019,0.000429,0.000248,0.0001,5.34e-05,2.98e-05,-12300.0,-12300.0,737,2,1.24,sV,C,Soil,Intra,486.53,502.24,475.09,278.6,329.42,162.9,248.0,72.0,-40.0
510,510,2019,6,20,1,23,27,156.1,-33.57,-68.91,5.5,C07O,-31.63358497619629,-71.16751861572266,0.00771,0.00773,0.0091,0.0129,0.0153,0.0136,0.0209,0.0181,0.0122,0.0111,0.00615,0.00457,0.0039,0.00103,0.000649,0.000274,0.000159,9.27e-05,5.04e-05,2.93e-05,-12300.0,-12300.0,654,2,5.32,sIII,C,Soil,Intra,339.67,355.13,315.56,259.72,314.77,162.9,248.0,72.0,-40.0
511,511,2019,6,20,1,23,27,156.1,-33.57,-68.91,5.5,C21O,-31.89861297607422,-71.4926986694336,-12300.0,-12300.0,-12300.0,-12300.0,-12300.0,-12300.0,-12300.0,-12300.0,-12300.0,-12300.0,-12300.0,-12300.0,-12300.0,-12300.0,-12300.0,-12300.0,-12300.0,-12300.0,-12300.0,-12300.0,-12300.0,-12300.0,404,1,1.35,-12345,-12345,-12345,Intra,342.51,357.44,318.16,295.85,306.74,162.9,248.0,72.0,-40.0
512,512,2019,6,20,1,23,27,156.1,-33.57,-68.91,5.5,C18O,-30.27776527404785,-70.66920471191406,-12300.0,-12300.0,-12300.0,-12300.0,-12300.0,-12300.0,-12300.0,-12300.0,-12300.0,-12300.0,-12300.0,-12300.0,-12300.0,-12300.0,-12300.0,-12300.0,-12300.0,-12300.0,-12300.0,-12300.0,-12300.0,-12300.0,-12345,-12345,-12345.0,sII,C,Soil,Intra,430.46,446.16,415.36,204.35,335.03,162.9,248.0,72.0,-40.0
513,513,2019,6,20,1,23,27,156.1,-33.57,-68.91,5.5,C16O,-29.8791446685791,-71.27141571044922,-12300.0,-12300.0,-12300.0,-12300.0,-12300.0,-12300.0,-12300.0,-12300.0,-12300.0,-12300.0,-12300.0,-12300.0,-12300.0,-12300.0,-12300.0,-12300.0,-12300.0,-12300.0,-12300.0,-12300.0,-12300.0,-12300.0,281,3,1.30,-12345,-12345,-12345,Intra,491.83,507.53,480.68,271.27,330.7,162.9,248.0,72.0,-40.0
514,514,2019,6,20,1,23,27,156.1,-33.57,-68.91,5.5,C17O,-29.90436553955078,-71.2379150390625,0.00547,0.00547,0.00555,0.00571,0.00643,0.0073,0.0118,0.0206,0.016,0.0146,0.0092,0.0066,0.00476,0.00149,0.00126,0.00059,0.000254,8.75e-05,4e-05,-12300.0,-12300.0,-12300.0,529,0,-,-12345,-12345,-12345,Intra,488.06,503.76,476.69,267.54,330.89,162.9,248.0,72.0,-40.0
515,515,2019,6,20,1,23,27,156.1,-33.57,-68.91,5.5,V12A,-32.45010757446289,-71.23664855957031,0.00825,0.00825,0.00838,0.00899,0.0122,0.0107,0.00985,0.0191,0.0197,0.0154,0.0222,0.0211,0.0119,0.00336,0.00183,0.000496,0.000351,0.000159,7.38e-05,4.57e-05,-12300.0,-12300.0,347,3,2.05,-12345,-12345,-12345,Intra,295.05,309.27,262.89,267.4,299.1,162.9,248.0,72.0,-40.0
516,516,2019,6,20,1,23,27,156.1,-33.57,-68.91,5.5,C08O,-31.187196731567383,-71.0008316040039,0.0124,0.0124,0.0128,0.0136,0.0157,0.0215,0.0374,0.0433,0.0272,0.0154,0.0131,0.00724,0.00565,0.00252,0.00171,0.00123,0.000509,0.000206,0.000111,-12300.0,-12300.0,-12300.0,827,1,1.63,-12345,-12345,-12345,Intra,364.54,380.29,343.63,241.2,322.76,162.9,248.0,72.0,-40.0
517,517,2019,6,20,1,23,27,156.1,-33.57,-68.91,5.5,R13M,-33.2154655456543,-70.76687622070312,0.0106,0.0106,0.0107,0.0108,0.0111,0.0127,0.0116,0.0141,0.016,0.0208,0.0188,0.0214,0.0218,0.0209,0.0127,0.00337,0.00148,0.000625,0.000357,0.000225,-12300.0,-12300.0,281,1,1.34,sV,B,Soil,Intra,236.13,248.24,187.31,215.21,282.31,162.9,248.0,72.0,-40.0
518,518,2019,6,20,1,23,27,156.1,-33.57,-68.91,5.5,C11O,-30.69640350341797,-70.95890808105469,0.00791,0.00791,0.00832,0.00887,0.0106,0.0141,0.0174,0.0226,0.0253,0.0278,0.0211,0.00896,0.00589,0.00179,0.00109,0.00057,0.00033,0.000122,6.95e-05,4.42e-05,-12300.0,-12300.0,626,1,3.87,sIII,B,Soil,Intra,404.06,419.86,386.97,236.54,328.2,162.9,248.0,72.0,-40.0
519,519,2019,6,14,0,19,11,15.0,-30.09,-72.06,6.3,C09O,-29.510543823242188,-71.20014953613281,0.00678,0.00678,0.00686,0.00727,0.00878,0.0121,0.0128,0.0219,0.0181,0.0149,0.0156,0.0143,0.0106,0.00632,0.00518,0.00157,0.00152,0.000884,0.000358,-12300.0,-12300.0,-12300.0,754,1,6.21,sII,B,Rock,Inter,106.12,103.59,102.33,116.25,52.52,7.853332946423813,1.0,21.0,88.0
520,520,2019,6,14,0,19,11,15.0,-30.09,-72.06,6.3,C16O,-29.879150390625,-71.27140808105469,0.0238,0.0238,0.0241,0.0244,0.0267,0.0317,0.0367,0.0513,0.0623,0.0457,0.0665,0.0387,0.0334,0.0368,0.015,0.00479,0.00278,0.00119,0.000514,0.000491,-12300.0,-12300.0,281,3,1.30,-12345,-12345,-12345,Inter,81.01,80.14,78.49,109.05,73.12,7.853332946423813,1.0,21.0,88.0
521,521,2019,6,14,0,19,11,15.0,-30.09,-72.06,6.3,C28O,-29.2905502319336,-71.30760192871094,0.00569,0.00568,0.0058,0.00586,0.0066,0.00714,0.00844,0.0117,0.0155,0.0177,0.0136,0.0127,0.0096,0.00712,0.004,0.00293,0.00164,0.00131,0.000434,-12300.0,-12300.0,-12300.0,-12345,-12345,-12345.0,sIII,C,Soil,Inter,115.67,112.16,111.05,103.89,39.6,7.853332946423813,1.0,21.0,88.0
522,522,2019,6,14,0,19,11,15.0,-30.09,-72.06,6.3,C22O,-29.965484619140625,-71.35111999511719,-12300.0,-12300.0,-12300.0,-12300.0,-12300.0,-12300.0,-12300.0,-12300.0,-12300.0,-12300.0,-12300.0,-12300.0,-12300.0,-12300.0,-12300.0,-12300.0,-12300.0,-12300.0,-12300.0,-12300.0,-12300.0,-12300.0,1228,0,-,sI,-,Soil,Inter,71.35,70.99,69.13,100.36,78.77,7.853332946423813,1.0,21.0,88.0
523,523,2019,6,14,0,19,11,15.0,-30.09,-72.06,6.3,C11O,-30.69640350341797,-70.95890808105469,0.00706,0.00707,0.00715,0.00731,0.00815,0.00986,0.0125,0.013,0.0197,0.0256,0.0257,0.0147,0.0103,0.00547,0.00265,0.00179,0.000898,0.000637,0.000478,0.000398,-12300.0,-12300.0,626,1,3.87,sIII,B,Soil,Inter,126.26,120.42,119.33,145.35,122.7,7.853332946423813,1.0,21.0,88.0
524,524,2019,6,14,0,19,11,15.0,-30.09,-72.06,6.3,C17O,-29.904375076293945,-71.2379150390625,0.0137,0.0137,0.0139,0.014,0.0153,0.0189,0.0203,0.0392,0.0311,0.0438,0.0372,0.0303,0.0331,0.0271,0.0191,0.00567,0.00275,0.00117,0.000649,0.000462,-12300.0,-12300.0,529,0,-,-12345,-12345,-12345,Inter,83.31,82.63,81.04,112.82,75.66,7.853332946423813,1.0,21.0,88.0
525,525,2019,6,14,0,19,11,15.0,-30.09,-72.06,6.3,C01O,-29.876941680908203,-71.2378921508789,0.0142,0.0142,0.0142,0.0143,0.0151,0.019,0.0276,0.0342,0.0539,0.0468,0.0367,0.0391,0.0254,0.017,0.00714,0.00291,0.00215,0.000938,0.000461,0.000432,-12300.0,-12300.0,447,1,1.04,sVI,B,Rock,Inter,84.12,83.28,81.7,112.77,73.63,7.853332946423813,1.0,21.0,88.0
