,Unnamed: 0,year,month,days,hour,minute,second,depth,latitude,longitude,magnitude,station,station_latitude,station_longitude,pga,sa0.01,sa0.02,sa0.03,sa0.05,sa0.07,sa0.1,sa0.15,sa0.2,sa0.25,sa0.3,sa0.4,sa0.5,sa0.75,sa1,sa1.5,sa2,sa3,sa4,sa5,sa7.5,sa10,Vs30,HVSRamp,fpeak,T*,P*,Rock/Soil,event_type,HypDist,RupDist,JBDist,XDist,Azimuth,RupDepth,Strike,Dip,Rake
643,643,2018,9,2,18,12,11,83.9773,-28.33,-70.49,4.5,A04C,-27.299591064453125,-70.41316986083984,0.0185,0.0185,0.0203,0.0271,0.0522,0.0527,0.0486,0.0435,0.0222,0.0144,0.00745,0.00344,0.00218,0.000955,0.000486,0.000197,0.000102,4.43e-05,-12300.0,-12300.0,-12300.0,-12300.0,534,3,1.13,-12345,-12345,-12345,Intra,141.94,141.94,114.44,8.54,3.81,83.9773,0.0,0.0,-90.0
644,644,2018,9,2,18,12,11,83.9773,-28.33,-70.49,4.5,A28C,-27.4664306640625,-70.26539611816406,-12300.0,-12300.0,-12300.0,-12300.0,-12300.0,-12300.0,-12300.0,-12300.0,-12300.0,-12300.0,-12300.0,-12300.0,-12300.0,-12300.0,-12300.0,-12300.0,-12300.0,-12300.0,-12300.0,-12300.0,-12300.0,-12300.0,522,2,6.90,sIII,B,Soil,Intra,129.23,129.23,98.22,24.96,13.06,83.9773,0.0,0.0,-90.0
645,645,2018,9,2,18,12,11,83.9773,-28.33,-70.49,4.5,A05C,-27.361183166503903,-70.33991241455078,0.0185,0.0185,0.0216,0.0284,0.0492,0.0295,0.0497,0.0336,0.0336,0.00882,0.00608,0.00219,0.00133,0.000515,0.000351,0.000175,9.15e-05,-12300.0,-12300.0,-12300.0,-12300.0,-12300.0,632,2,6.30,sIII,C,Soil,Intra,137.1,137.1,108.37,16.68,7.88,83.9773,0.0,0.0,-90.0
646,646,2018,9,2,18,12,11,83.9773,-28.33,-70.49,4.5,A27C,-27.367116928100582,-70.3306884765625,0.0161,0.0161,0.0179,0.022,0.0374,0.0289,0.0485,0.0291,0.0251,0.0239,0.0116,0.00418,0.00307,0.000875,0.000578,0.000183,9.03e-05,3.82e-05,2.14e-05,1.39e-05,-12300.0,-12300.0,473,2,6.70,sVI,B,Soil,Intra,136.69,136.69,107.85,17.7,8.4,83.9773,0.0,0.0,-90.0
647,647,2018,9,2,18,12,11,83.9773,-28.33,-70.49,4.5,A24C,-29.09847450256348,-70.46080017089844,0.0113,0.0113,0.0135,0.0164,0.0276,0.033,0.0388,0.0167,0.0129,0.00999,0.00679,0.00301,0.00155,0.000607,0.000307,0.000112,5.72e-05,-12300.0,-12300.0,-12300.0,-12300.0,-12300.0,-12345,-12345,-12345.0,sIII,C,Soil,Intra,119.64,119.64,85.22,3.24,178.09,83.9773,0.0,0.0,-90.0
651,651,2019,4,8,6,39,42,29.419,-32.05,-71.63,4.6,V02A,-33.023094177246094,-71.51782989501953,0.00568,0.00568,0.00584,0.00615,0.0075,0.0111,0.024,0.0123,0.00645,0.00428,0.00329,0.00193,0.0012,0.000625,0.000263,0.000103,5.57e-05,2.11e-05,1.1e-05,7.13e-06,-12300.0,-12300.0,596,2,6.04,sII,C,Rock,Inter,112.35,112.35,108.43,12.46,174.45,29.419,0.0,0.0,105.0
652,652,2019,4,8,6,39,42,29.419,-32.05,-71.63,4.6,C21O,-31.89861869812012,-71.49271392822266,0.0182,0.0182,0.0189,0.0197,0.0235,0.0289,0.0508,0.088,0.0407,0.0246,0.022,0.0117,0.006,0.00259,0.00159,0.000582,0.000297,0.00012,6.31e-05,3.87e-05,-12300.0,-12300.0,404,1,1.35,-12345,-12345,-12345,Inter,36.27,36.27,21.22,15.25,37.74,29.419,0.0,0.0,105.0
653,653,2019,4,8,6,39,42,29.419,-32.05,-71.63,4.6,V12A,-32.4500846862793,-71.23666381835938,0.00917,0.00918,0.00952,0.0106,0.0177,0.0241,0.0233,0.0335,0.0154,0.00934,0.00675,0.00739,0.00672,0.00179,0.000784,0.000223,0.00012,5.41e-05,3.05e-05,-12300.0,-12300.0,-12300.0,347,3,2.05,-12345,-12345,-12345,Inter,64.87,64.87,57.81,43.7,140.23,29.419,0.0,0.0,105.0
654,654,2019,4,8,6,39,42,29.419,-32.05,-71.63,4.6,C23O,-31.78375625610352,-70.96977996826172,0.021,0.0211,0.0228,0.0291,0.0598,0.0911,0.0453,0.0284,0.0182,0.0132,0.00722,0.00417,0.00227,0.000636,0.000333,0.000136,7.46e-05,3.04e-05,-12300.0,-12300.0,-12300.0,-12300.0,751,3,2.10,-12345,-12345,-12345,Inter,75.07,75.07,69.07,73.36,64.87,29.419,0.0,0.0,105.0
655,655,2019,5,30,3,34,56,91.2275,-23.44,-68.87,5.0,A05F,-22.891401290893555,-69.32068634033203,0.0349,0.0348,0.0477,0.0735,0.104,0.0988,0.0629,0.0963,0.0338,0.0201,0.01,0.00682,0.00327,0.00154,0.000852,0.000255,0.000166,8.81e-05,5.29e-05,3.18e-05,1.13e-05,-12300.0,-12345,-12345,-12345.0,sII,B,Rock,Intra,118.93,116.35,73.12,62.3,322.69,90.5,149.0,35.0,-99.0
660,660,2019,5,30,3,34,56,91.2275,-23.44,-68.87,5.0,A20F,-22.453746795654297,-68.91004180908203,0.00857,0.00858,0.00918,0.0105,0.0183,0.023,0.0222,0.0218,0.00857,0.00733,0.00693,0.00778,0.00662,0.00395,0.00195,0.000717,0.000299,0.000123,6.28e-05,3.68e-05,1.48e-05,8.41e-06,-12345,-12345,-12345.0,sII,C,Soil,Intra,142.37,131.19,94.97,16.67,357.84,90.5,149.0,35.0,-99.0
661,661,2019,4,16,0,54,12,27.0,-27.89,-71.36,4.7,A18C,-27.502620697021484,-70.88665771484375,0.0108,0.0108,0.0111,0.0118,0.0122,0.016,0.0232,0.0388,0.025,0.015,0.00931,0.00499,0.0027,0.00132,0.000863,0.000356,0.000205,7.34e-05,4.2e-05,2.76e-05,-12300.0,-12300.0,1170,2,5.70,-12345,-12345,-12345,Inter,68.93,68.93,63.42,52.59,47.51,27.0,0.0,0.0,105.0
662,662,2019,4,16,0,54,12,27.0,-27.89,-71.36,4.7,A27C,-27.36712646484375,-70.33070373535156,0.00644,0.00644,0.00831,0.00798,0.00994,0.0118,0.0118,0.0165,0.0208,0.0212,0.02,0.00931,0.00449,0.00198,0.000751,0.000244,0.000133,-12300.0,-12300.0,-12300.0,-12300.0,-12300.0,473,2,6.70,sVI,B,Soil,Inter,120.03,120.03,116.95,114.37,60.54,27.0,0.0,0.0,105.0
663,663,2019,4,16,0,54,12,27.0,-27.89,-71.36,4.7,A19C,-27.830406188964844,-70.10801696777344,0.00692,0.00692,0.00705,0.00752,0.0133,0.0182,0.0208,0.0202,0.018,0.0126,0.0143,0.00937,0.00606,0.00174,0.000771,0.000266,0.000137,5.59e-05,-12300.0,-12300.0,-12300.0,-12300.0,507,3,2.50,sIV,A,Soil,Inter,126.4,126.4,123.48,139.11,87.23,27.0,0.0,0.0,105.0
664,664,2019,4,16,0,54,12,27.0,-27.89,-71.36,4.7,A22C,-28.75487518310547,-70.48555755615234,0.0103,0.0103,0.0107,0.0112,0.015,0.0201,0.0366,0.022,0.0159,0.00985,0.0102,0.00649,0.00429,0.00149,0.000659,0.00023,0.000125,4.98e-05,2.84e-05,-12300.0,-12300.0,-12300.0,-12345,-12345,-12345.0,sIII,B,Soil,Inter,131.41,131.41,128.61,97.16,138.39,27.0,0.0,0.0,105.0
667,667,2019,4,16,0,54,12,27.0,-27.89,-71.36,4.7,A03C,-27.261659622192383,-70.7736587524414,0.0101,0.01,0.0106,0.0113,0.0148,0.0197,0.0228,0.0287,0.0306,0.0233,0.02,0.00992,0.00433,0.0017,0.000756,0.000363,0.00018,6.75e-05,3.38e-05,2.37e-05,1.17e-05,-12300.0,648,3,6.71,-12345,-12345,-12345,Inter,94.49,94.49,90.55,65.15,39.88,27.0,0.0,0.0,105.0
668,668,2019,4,16,0,54,12,27.0,-27.89,-71.36,4.7,A28C,-27.4664363861084,-70.26539611816406,0.00682,0.00682,0.00723,0.00895,0.011,0.0128,0.0158,0.0162,0.0209,0.0273,0.0172,0.00622,0.00406,0.00127,0.000541,0.000226,-12300.0,-12300.0,-12300.0,-12300.0,-12300.0,-12300.0,522,2,6.90,sIII,B,Soil,Inter,120.8,120.8,117.74,121.62,66.76,27.0,0.0,0.0,105.0
669,669,2019,5,16,14,32,50,103.9,-17.75,-70.06,5.2,A13P,-18.518823623657227,-70.17936706542969,0.0194,0.0193,0.0224,0.0293,0.0536,0.05,0.0335,0.0361,0.0354,0.0462,0.0318,0.0251,0.0223,0.0108,0.00689,0.00231,0.00112,0.000433,0.000219,0.00013,5.23e-05,2.85e-05,531,1,1.30,-12345,-12345,-12345,Intra,134.89,134.89,86.03,13.26,188.43,103.9,0.0,0.0,-90.0
670,670,2019,5,16,14,32,50,103.9,-17.75,-70.06,5.2,A11P,-18.47931861877441,-70.27053833007812,-12300.0,-12300.0,-12300.0,-12300.0,-12300.0,-12300.0,-12300.0,-12300.0,-12300.0,-12300.0,-12300.0,-12300.0,-12300.0,-12300.0,-12300.0,-12300.0,-12300.0,-12300.0,-12300.0,-12300.0,-12300.0,-12300.0,804,1,1.05,-12345,-12345,-12345,Intra,133.45,133.45,83.74,23.39,195.4,103.9,0.0,0.0,-90.0
671,671,2019,5,16,14,32,50,103.9,-17.75,-70.06,5.2,A19P,-18.493501663208008,-70.2990951538086,0.0157,0.0157,0.0174,0.023,0.0378,0.0439,0.0334,0.0238,0.0158,0.0161,0.0124,0.0111,0.00789,0.00471,0.00193,0.00142,0.000739,-12300.0,-12300.0,-12300.0,-12300.0,-12300.0,727,0,-,-12345,-12345,-12345,Intra,134.94,134.94,86.09,26.57,197.06,103.9,0.0,0.0,-90.0
673,673,2019,5,16,14,32,50,103.9,-17.75,-70.06,5.2,A07P,-18.445934295654297,-70.29288482666016,0.0159,0.0159,0.0171,0.0203,0.0337,0.0325,0.038,0.0251,0.0182,0.0217,0.0184,0.0212,0.0132,0.00495,0.00412,0.00218,0.00105,0.000401,0.000195,0.00011,4.32e-05,2.45e-05,560,1,1.20,-12345,-12345,-12345,Intra,131.67,131.67,80.88,25.88,197.71,103.9,0.0,0.0,-90.0
674,674,2019,5,16,14,32,50,103.9,-17.75,-70.06,5.2,A09P,-18.480457305908203,-70.32496643066406,-12300.0,-12300.0,-12300.0,-12300.0,-12300.0,-12300.0,-12300.0,-12300.0,-12300.0,-12300.0,-12300.0,-12300.0,-12300.0,-12300.0,-12300.0,-12300.0,-12300.0,-12300.0,-12300.0,-12300.0,-12300.0,-12300.0,1054,0,-,-12345,-12345,-12345,Intra,134.6,134.6,85.57,29.44,199.09,103.9,0.0,0.0,-90.0
675,675,2019,5,16,14,32,50,103.9,-17.75,-70.06,5.2,A15P,-18.472227096557617,-70.3128890991211,0.0154,0.0152,0.0284,0.0191,0.0156,0.0194,0.0181,0.0198,0.0183,0.0266,0.0186,0.0174,0.0157,0.00769,0.004,0.0025,0.00126,0.000359,0.000196,0.000115,4.22e-05,-12300.0,390,2,1.10,-12345,-12345,-12345,Intra,133.8,133.8,84.3,28.1,198.47,103.9,0.0,0.0,-90.0
676,676,2019,5,16,14,32,50,103.9,-17.75,-70.06,5.2,A12P,-18.45261573791504,-70.06678771972656,0.0195,0.0195,0.0205,0.0277,0.0313,0.0392,0.0493,0.0485,0.0311,0.0289,0.0298,0.0301,0.0293,0.0178,0.00962,0.00358,0.00171,0.000628,-12300.0,-12300.0,-12300.0,-12300.0,560,1,2.20,-12345,-12345,-12345,Intra,129.78,129.78,77.77,0.75,180.53,103.9,0.0,0.0,-90.0
678,678,2019,5,16,14,32,50,103.9,-17.75,-70.06,5.2,A05P,-18.486352920532227,-70.30055236816406,0.0194,0.0194,0.0198,0.0224,0.0374,0.055,0.0517,0.0384,0.0399,0.0347,0.0286,0.0181,0.0184,0.00996,0.00448,0.00279,0.00134,0.000426,0.000231,0.000137,5.39e-05,-12300.0,446,2,1.20,sVI,A,Soil,Intra,134.48,134.48,85.38,26.73,197.31,103.9,0.0,0.0,-90.0
679,679,2019,5,16,14,32,50,103.9,-17.75,-70.06,5.2,A14P,-18.351104736328125,-70.33595275878906,-12300.0,-12300.0,-12300.0,-12300.0,-12300.0,-12300.0,-12300.0,-12300.0,-12300.0,-12300.0,-12300.0,-12300.0,-12300.0,-12300.0,-12300.0,-12300.0,-12300.0,-12300.0,-12300.0,-12300.0,-12300.0,-12300.0,474,2,0.42,-12345,-12345,-12345,Intra,126.79,126.79,72.66,30.66,203.67,103.9,0.0,0.0,-90.0
680,680,2019,5,16,14,32,50,103.9,-17.75,-70.06,5.2,T11A,-19.312419891357425,-69.42727661132812,0.0165,0.0165,0.0167,0.0174,0.0186,0.0258,0.0519,0.045,0.0681,0.0353,0.0292,0.0204,0.0139,0.0259,0.0121,0.00276,0.00109,0.000457,0.000221,-12300.0,-12300.0,-12300.0,-12345,-12345,-12345.0,sV,B,Soil,Intra,212.52,212.52,185.39,70.3,158.98,103.9,0.0,0.0,-90.0
681,681,2019,5,16,14,32,50,103.9,-17.75,-70.06,5.2,A16P,-19.16004943847656,-70.17967987060547,-12300.0,-12300.0,-12300.0,-12300.0,-12300.0,-12300.0,-12300.0,-12300.0,-12300.0,-12300.0,-12300.0,-12300.0,-12300.0,-12300.0,-12300.0,-12300.0,-12300.0,-12300.0,-12300.0,-12300.0,-12300.0,-12300.0,-12345,-12345,-12345.0,sII,C,Soil,Intra,187.92,187.92,156.58,13.3,184.61,103.9,0.0,0.0,-90.0
682,682,2019,5,16,14,32,50,103.9,-17.75,-70.06,5.2,A06P,-18.46971702575684,-70.2934341430664,-12300.0,-12300.0,-12300.0,-12300.0,-12300.0,-12300.0,-12300.0,-12300.0,-12300.0,-12300.0,-12300.0,-12300.0,-12300.0,-12300.0,-12300.0,-12300.0,-12300.0,-12300.0,-12300.0,-12300.0,-12300.0,-12300.0,500,1,2.50,-12345,-12345,-12345,Intra,133.23,133.23,83.4,25.94,197.2,103.9,0.0,0.0,-90.0
684,684,2019,5,9,22,21,40,54.5724,-21.18,-70.01,4.5,T07A,-20.256250381469727,-69.78593444824219,0.00854,0.00854,0.00878,0.00989,0.0192,0.0177,0.0211,0.0176,0.014,0.0123,0.011,0.0146,0.00687,0.00209,0.000932,0.000312,0.00018,6.74e-05,3.53e-05,-12300.0,-12300.0,-12300.0,326,3,2.87,sIV,C,Soil,Inter,118.25,118.25,104.9,24.9,12.9,54.5724,0.0,0.0,105.0
685,685,2019,5,9,22,21,40,54.5724,-21.18,-70.01,4.5,T13A,-20.496309280395508,-69.33746337890625,0.00741,0.0074,0.0124,0.0109,0.0146,0.0176,0.0274,0.0134,0.00828,0.00542,0.00466,0.00305,0.00187,0.000571,0.000304,0.000103,6.1e-05,-12300.0,-12300.0,-12300.0,-12300.0,-12300.0,378,1,8.65,sIV,B,Soil,Inter,116.65,116.65,103.1,74.73,42.88,54.5724,0.0,0.0,105.0
687,687,2019,5,9,22,21,40,54.5724,-21.18,-70.01,4.5,A11F,-21.42488479614257,-70.0567855834961,0.0265,0.0265,0.0287,0.0316,0.0558,0.0908,0.076,0.0443,0.0197,0.0152,0.0112,0.005,0.00258,0.00137,0.000755,0.000294,0.000152,6.15e-05,3.3e-05,2.07e-05,-12300.0,-12300.0,-12345,-12345,-12345.0,sII,C,Soil,Inter,61.13,61.13,27.55,5.2,190.14,54.5724,0.0,0.0,105.0
711,711,2019,3,9,2,16,58,49.7653,-30.28,-71.32,4.9,C01O,-29.8769588470459,-71.23788452148438,0.0215,0.0215,0.0229,0.0265,0.0427,0.0663,0.0641,0.0513,0.049,0.0277,0.014,0.0123,0.00556,0.00161,0.000914,0.000454,0.00025,8.97e-05,5.35e-05,3.43e-05,-12300.0,-12300.0,447,1,1.04,sVI,B,Rock,Inter,67.35,67.35,45.37,9.12,10.07,49.7653,0.0,0.0,105.0
712,712,2019,3,9,2,16,58,49.7653,-30.28,-71.32,4.9,C28O,-29.29055976867676,-71.30760955810547,0.00698,0.00697,0.00772,0.00971,0.0183,0.0168,0.0143,0.0197,0.0193,0.0117,0.0056,0.00278,0.00157,0.000666,0.000322,0.00013,5.76e-05,2.55e-05,1.42e-05,8.76e-06,-12300.0,-12300.0,-12345,-12345,-12345.0,sIII,C,Soil,Inter,120.45,120.45,109.68,1.38,0.63,49.7653,0.0,0.0,105.0
713,713,2019,3,9,2,16,58,49.7653,-30.28,-71.32,4.9,C29O,-30.601104736328125,-71.20121002197266,0.0189,0.019,0.0331,0.045,0.0419,0.0315,0.0249,0.00914,0.0061,0.00581,0.00408,0.00532,0.00334,0.00225,0.00171,0.000472,0.000222,8.45e-05,3.91e-05,2.42e-05,-12300.0,-12300.0,799,1,1.10,-12345,-12345,-12345,Inter,62.24,62.24,37.38,13.2,162.26,49.7653,0.0,0.0,105.0
714,714,2019,3,9,2,16,58,49.7653,-30.28,-71.32,4.9,C24O,-29.95461845397949,-71.30150604248047,0.0836,0.0836,0.0857,0.0895,0.12,0.14,0.166,0.264,0.237,0.172,0.0789,0.0494,0.0269,0.00808,0.00394,0.00169,0.000919,0.000382,0.000208,0.00013,-12300.0,-12300.0,433,3,0.77,-12345,-12345,-12345,Inter,61.49,61.49,36.11,2.05,2.83,49.7653,0.0,0.0,105.0
715,715,2019,3,9,2,16,58,49.7653,-30.28,-71.32,4.9,C06O,-29.917871475219727,-71.20086669921875,0.0148,0.0148,0.0157,0.0215,0.0396,0.0346,0.0384,0.0362,0.035,0.022,0.0107,0.00938,0.00627,0.0013,0.00077,0.00034,0.000191,7.11e-05,3.83e-05,2.53e-05,-12300.0,-12300.0,-12345,-12345,-12345.0,sI,-,Rock,Inter,64.96,64.96,41.75,13.24,15.99,49.7653,0.0,0.0,105.0
717,717,2019,3,9,2,16,58,49.7653,-30.28,-71.32,4.9,C09O,-29.51054954528809,-71.20015716552734,0.0236,0.0236,0.026,0.0453,0.0645,0.0701,0.0578,0.0367,0.0257,0.0159,0.00649,0.00253,0.00142,0.000536,0.000279,0.000135,8.05e-05,3.99e-05,-12300.0,-12300.0,-12300.0,-12300.0,754,1,6.21,sII,B,Rock,Inter,99.43,99.43,86.08,13.32,7.76,49.7653,0.0,0.0,105.0
718,718,2019,3,9,2,16,58,49.7653,-30.28,-71.32,4.9,C18O,-30.277767181396484,-70.669189453125,0.0133,0.0134,0.0243,0.032,0.0372,0.0268,0.023,0.0203,0.0147,0.0074,0.00536,0.00289,0.00167,0.000615,0.000304,0.000149,7.54e-05,3.52e-05,1.89e-05,1.38e-05,-12300.0,-12300.0,-12345,-12345,-12345.0,sII,C,Soil,Inter,79.99,79.99,62.62,72.31,89.94,49.7653,0.0,0.0,105.0
719,719,2019,3,9,2,16,58,49.7653,-30.28,-71.32,4.9,C16O,-29.87917137145996,-71.27140045166016,0.0583,0.0584,0.0608,0.0731,0.127,0.15,0.177,0.163,0.0763,0.0511,0.0515,0.0319,0.0151,0.00499,0.00266,0.000991,0.00051,0.000233,-12300.0,-12300.0,-12300.0,-12300.0,281,3,1.30,-12345,-12345,-12345,Inter,66.88,66.88,44.68,5.4,6.03,49.7653,0.0,0.0,105.0
720,720,2019,3,9,2,16,58,49.7653,-30.28,-71.32,4.9,C14O,-30.123077392578125,-70.4906005859375,0.015,0.015,0.0166,0.023,0.0481,0.0429,0.0347,0.0346,0.0192,0.0152,0.00909,0.00884,0.00755,0.00201,0.000776,0.00033,0.000174,6.95e-05,3.88e-05,-12300.0,-12300.0,-12300.0,-12345,-12345,-12345.0,sIV,C,Soil,Inter,95.69,95.69,81.74,92.15,77.92,49.7653,0.0,0.0,105.0
721,721,2019,3,9,2,16,58,49.7653,-30.28,-71.32,4.9,A22C,-28.75487899780273,-70.48554229736328,0.00543,0.00543,0.00566,0.00626,0.00942,0.0151,0.0177,0.0179,0.0101,0.00747,0.00662,0.00335,0.00193,0.000529,0.000211,8.72e-05,4.91e-05,-12300.0,-12300.0,-12300.0,-12300.0,-12300.0,-12345,-12345,-12345.0,sIII,B,Soil,Inter,193.9,193.9,187.41,92.72,25.78,49.7653,0.0,0.0,105.0
722,722,2019,3,9,2,16,58,49.7653,-30.28,-71.32,4.9,C10O,-30.23391532897949,-71.08160400390625,0.0346,0.0348,0.0661,0.0934,0.0916,0.0807,0.049,0.0257,0.0126,0.00776,0.00601,0.00382,0.00233,0.00113,0.000615,0.000263,0.000142,6.86e-05,4.04e-05,2.53e-05,1.18e-05,-12300.0,-12345,-12345,-12345.0,sII,A,Rock,Inter,55.04,55.04,23.5,26.49,77.51,49.7653,0.0,0.0,105.0
725,725,2019,3,9,2,16,58,49.7653,-30.28,-71.32,4.9,C22O,-29.96549224853516,-71.35111236572266,0.0146,0.0146,0.0189,0.0225,0.0364,0.0478,0.0377,0.0179,0.0125,0.0136,0.00982,0.00831,0.0045,0.00111,0.00056,0.00026,0.000133,6.76e-05,4.13e-05,2.72e-05,1.2e-05,-12300.0,1228,0,-,sI,-,Soil,Inter,60.84,60.84,34.99,3.46,355.08,49.7653,0.0,0.0,105.0
726,726,2019,3,9,2,16,58,49.7653,-30.28,-71.32,4.9,C19O,-30.09342384338379,-71.36894989013672,-12300.0,-12300.0,-12300.0,-12300.0,-12300.0,-12300.0,-12300.0,-12300.0,-12300.0,-12300.0,-12300.0,-12300.0,-12300.0,-12300.0,-12300.0,-12300.0,-12300.0,-12300.0,-12300.0,-12300.0,-12300.0,-12300.0,1106,0,-,sI,-,Rock,Inter,54.1,54.1,21.21,5.44,347.15,49.7653,0.0,0.0,105.0
727,727,2019,3,9,2,16,58,49.7653,-30.28,-71.32,4.9,A24C,-29.098478317260746,-70.4607925415039,-12300.0,-12300.0,-12300.0,-12300.0,-12300.0,-12300.0,-12300.0,-12300.0,-12300.0,-12300.0,-12300.0,-12300.0,-12300.0,-12300.0,-12300.0,-12300.0,-12300.0,-12300.0,-12300.0,-12300.0,-12300.0,-12300.0,-12345,-12345,-12345.0,sIII,C,Soil,Inter,162.92,162.92,155.14,95.47,32.63,49.7653,0.0,0.0,105.0
728,728,2019,3,9,2,16,58,49.7653,-30.28,-71.32,4.9,C20O,-29.968162536621094,-71.33738708496094,0.0469,0.0469,0.0542,0.0795,0.116,0.149,0.108,0.0741,0.06,0.0528,0.032,0.0217,0.0127,0.00562,0.00228,0.000711,0.000396,0.000161,8.65e-05,-12300.0,-12300.0,-12300.0,737,2,1.24,sV,C,Soil,Inter,60.62,60.62,34.61,1.93,357.22,49.7653,0.0,0.0,105.0
729,729,2019,3,9,2,16,58,49.7653,-30.28,-71.32,4.9,C17O,-29.904375076293945,-71.23790740966797,0.0351,0.0351,0.0361,0.0378,0.053,0.0744,0.071,0.0952,0.0823,0.0437,0.0301,0.0217,0.0103,0.00307,0.00171,0.0007,0.000393,0.000159,-12300.0,-12300.0,-12300.0,-12300.0,529,0,-,-12345,-12345,-12345,Inter,65.37,65.37,42.38,9.12,10.78,49.7653,0.0,0.0,105.0
731,731,2019,3,9,2,16,58,49.7653,-30.28,-71.32,4.9,C26O,-30.258956909179688,-71.49040222167969,0.0232,0.0231,0.0301,0.0494,0.0881,0.0761,0.0543,0.0255,0.0235,0.0132,0.01,0.00604,0.00488,0.002,0.00116,0.000456,0.000223,9.58e-05,4.61e-05,2.79e-05,1.23e-05,-12300.0,364,3,1.87,sIV,C,Soil,Inter,52.45,52.45,16.56,18.93,278.05,49.7653,0.0,0.0,105.0
732,732,2019,3,9,2,16,58,49.7653,-30.28,-71.32,4.9,C13O,-30.57930374145508,-71.4945297241211,0.00839,0.00837,0.00885,0.0119,0.0198,0.0201,0.026,0.0143,0.0112,0.00926,0.00784,0.00782,0.00456,0.00147,0.000674,0.000268,0.000138,5.56e-05,-12300.0,-12300.0,-12300.0,-12300.0,505,3,1.75,sIV,B,Soil,Inter,62.12,62.12,37.18,19.39,206.76,49.7653,0.0,0.0,105.0
733,733,2019,3,9,2,16,58,49.7653,-30.28,-71.32,4.9,C33O,-29.910734176635746,-71.2508316040039,0.013,0.013,0.0134,0.0151,0.0234,0.0306,0.0263,0.025,0.0337,0.0337,0.0272,0.0213,0.00897,0.0026,0.00129,0.000556,0.000299,0.000113,6.27e-05,3.96e-05,-12300.0,-12300.0,587,1,3.20,sIII,B,Rock,Inter,64.78,64.78,41.47,7.69,9.27,49.7653,0.0,0.0,105.0
734,734,2019,3,9,2,16,58,49.7653,-30.28,-71.32,4.9,C08O,-31.18721389770508,-71.0008316040039,0.00785,0.00786,0.00857,0.00944,0.0156,0.0219,0.0195,0.0244,0.0105,0.00689,0.00414,0.00196,0.000992,0.000476,0.000317,0.000117,6.48e-05,2.45e-05,1.22e-05,8.19e-06,-12300.0,-12300.0,827,1,1.63,-12345,-12345,-12345,Inter,116.3,116.3,105.12,35.46,163.18,49.7653,0.0,0.0,105.0
735,735,2019,3,9,2,16,58,49.7653,-30.28,-71.32,4.9,C11O,-30.696413040161133,-70.95890045166016,-12300.0,-12300.0,-12300.0,-12300.0,-12300.0,-12300.0,-12300.0,-12300.0,-12300.0,-12300.0,-12300.0,-12300.0,-12300.0,-12300.0,-12300.0,-12300.0,-12300.0,-12300.0,-12300.0,-12300.0,-12300.0,-12300.0,626,1,3.87,sIII,B,Soil,Inter,76.22,76.22,57.73,40.12,143.18,49.7653,0.0,0.0,105.0
736,736,2018,12,13,4,4,29,98.9273,-27.69,-69.22,4.8,A28C,-27.46641159057617,-70.26539611816406,0.0131,0.0131,0.0153,0.0271,0.0349,0.0374,0.0337,0.0181,0.0151,0.00982,0.00619,0.00337,0.00237,0.0012,0.000694,0.000212,0.000103,-12300.0,-12300.0,-12300.0,-12300.0,-12300.0,522,2,6.90,sIII,B,Soil,Intra,145.11,145.11,106.16,116.15,283.25,98.9273,0.0,0.0,-90.0
738,738,2018,12,13,4,4,29,98.9273,-27.69,-69.22,4.8,A05C,-27.361162185668945,-70.33990478515625,0.00787,0.00789,0.00957,0.0129,0.0227,0.0222,0.02,0.0131,0.00704,0.00309,0.00204,0.00121,0.000877,0.000446,0.000259,9.26e-05,5.31e-05,-12300.0,-12300.0,-12300.0,-12300.0,-12300.0,632,2,6.30,sIII,C,Soil,Intra,152.82,152.82,116.48,124.43,287.97,98.9273,0.0,0.0,-90.0
