,Unnamed: 0,year,month,days,hour,minute,second,depth,latitude,longitude,magnitude,station,station_latitude,station_longitude,pga,sa0.01,sa0.02,sa0.03,sa0.05,sa0.07,sa0.1,sa0.15,sa0.2,sa0.25,sa0.3,sa0.4,sa0.5,sa0.75,sa1,sa1.5,sa2,sa3,sa4,sa5,sa7.5,sa10,Vs30,HVSRamp,fpeak,T*,P*,Rock/Soil,event_type,HypDist,RupDist,JBDist,XDist,Azimuth,RupDepth,Strike,Dip,Rake
166,166,2019,3,7,15,34,30,15.0,-29.5,-72.75,5.7,A07C,-27.37407493591309,-70.31778717041016,0.00873,0.00854,0.0142,0.0101,0.0132,0.0163,0.0258,0.0303,0.0193,0.0186,0.0182,0.00887,0.00708,0.00136,0.00088,0.000345,0.000203,0.000123,8.13e-05,5.03e-05,-12300.0,-12300.0,441,3,2.51,-12345,-12345,-12345,Intra,335.4,342.19,340.73,278.02,45.91,31.5,185.0,38.0,114.0
168,168,2019,3,7,15,34,30,15.0,-29.5,-72.75,5.7,C10O,-30.23391532897949,-71.08161163330078,0.00897,0.00894,0.0131,0.0186,0.0217,0.0159,0.0206,0.0206,0.0307,0.0182,0.0116,0.00373,0.00255,0.000939,0.000629,0.000518,0.00036,0.000176,0.000113,7.75e-05,-12300.0,-12300.0,-12345,-12345,-12345.0,sII,A,Rock,Intra,181.18,188.78,186.13,193.15,117.19,31.5,185.0,38.0,114.0
169,169,2019,3,7,15,34,30,15.0,-29.5,-72.75,5.7,A23C,-28.97295570373535,-70.2157211303711,0.0123,0.0123,0.0145,0.0238,0.0461,0.0352,0.027,0.0206,0.0151,0.0103,0.00949,0.00798,0.00364,0.00112,0.000533,0.000398,0.00026,8.81e-05,5.43e-05,3.76e-05,-12300.0,-12300.0,-12345,-12345,-12345.0,sIV,B,Soil,Intra,253.64,261.96,260.06,289.36,77.28,31.5,185.0,38.0,114.0
171,171,2019,3,7,15,34,30,15.0,-29.5,-72.75,5.7,A27C,-27.367122650146484,-70.33071899414062,0.0113,0.0113,0.0118,0.0122,0.0157,0.0201,0.0313,0.0231,0.0342,0.0242,0.0155,0.00796,0.0081,0.00236,0.00124,0.000321,0.00022,0.000126,6.89e-05,4.5e-05,-12300.0,-12300.0,473,2,6.70,sVI,B,Soil,Intra,335.05,341.82,340.37,276.58,45.66,31.5,185.0,38.0,114.0
172,172,2019,3,7,15,34,30,15.0,-29.5,-72.75,5.7,C33O,-29.91073036193848,-71.25084686279297,-12300.0,-12300.0,-12300.0,-12300.0,-12300.0,-12300.0,-12300.0,-12300.0,-12300.0,-12300.0,-12300.0,-12300.0,-12300.0,-12300.0,-12300.0,-12300.0,-12300.0,-12300.0,-12300.0,-12300.0,-12300.0,-12300.0,587,1,3.20,sIII,B,Rock,Intra,152.79,161.31,158.2,174.35,107.79,31.5,185.0,38.0,114.0
173,173,2019,3,7,15,34,30,15.0,-29.5,-72.75,5.7,C13O,-30.579317092895508,-71.49454498291016,-12300.0,-12300.0,-12300.0,-12300.0,-12300.0,-12300.0,-12300.0,-12300.0,-12300.0,-12300.0,-12300.0,-12300.0,-12300.0,-12300.0,-12300.0,-12300.0,-12300.0,-12300.0,-12300.0,-12300.0,-12300.0,-12300.0,505,3,1.75,sIV,B,Soil,Intra,170.88,177.15,174.33,147.27,134.97,31.5,185.0,38.0,114.0
175,175,2019,3,7,15,34,30,15.0,-29.5,-72.75,5.7,C32O,-30.85488510131836,-70.70735931396484,0.00784,0.00783,0.00944,0.0141,0.0221,0.0297,0.0253,0.0141,0.00917,0.00638,0.00375,0.00246,0.00192,0.000808,0.000778,0.000513,0.000248,0.000134,8.96e-05,5.63e-05,1.9e-05,-12300.0,578,1,6.51,-12345,-12345,-12345,Intra,247.96,254.19,252.23,234.74,127.87,31.5,185.0,38.0,114.0
176,176,2019,3,27,3,57,10,118.8492,-18.44,-69.38,4.6,T20A,-19.92440223693848,-69.51192474365234,0.00605,0.00606,0.00646,0.00641,0.00842,0.0131,0.0165,0.0244,0.0203,0.00669,0.00366,0.00211,0.00108,0.000423,0.000301,0.000162,0.0001,4.2e-05,2.03e-05,1.15e-05,5.02e-06,2.75e-06,517,2,6.50,-12345,-12345,-12345,Intra,203.27,229.32,177.99,12.44,184.81,144.6,96.0,11.0,-164.0
177,177,2019,3,27,3,57,10,118.8492,-18.44,-69.38,4.6,A19P,-18.493547439575195,-70.29904174804688,0.00723,0.00723,0.00789,0.0094,0.0132,0.0222,0.0203,0.0131,0.00725,0.00462,0.00321,0.00204,0.00192,0.000651,0.000284,0.000102,5.25e-05,2.28e-05,1.24e-05,-12300.0,-12300.0,-12300.0,727,0,-,-12345,-12345,-12345,Intra,153.57,174.07,96.91,99.89,266.36,144.6,96.0,11.0,-164.0
179,179,2019,3,27,3,57,10,118.8492,-18.44,-69.38,4.6,A12P,-18.452617645263672,-70.06678771972656,0.00839,0.00836,0.0095,0.0148,0.019,0.0232,0.031,0.0133,0.01,0.00802,0.00727,0.00505,0.00393,0.00194,0.000978,0.000282,-12300.0,-12300.0,-12300.0,-12300.0,-12300.0,-12300.0,560,1,2.20,-12345,-12345,-12345,Intra,139.25,161.52,71.97,74.09,268.79,144.6,96.0,11.0,-164.0
181,181,2019,3,27,3,57,10,118.8492,-18.44,-69.38,4.6,A05P,-18.48635673522949,-70.30055236816406,0.00807,0.00807,0.0082,0.00934,0.0132,0.0193,0.028,0.0164,0.00956,0.00633,0.00591,0.00296,0.00259,0.00131,0.000574,0.00018,8.64e-05,3.23e-05,1.73e-05,1.04e-05,-12300.0,-12300.0,446,2,1.20,sVI,A,Soil,Intra,153.64,174.08,96.92,100.06,266.83,144.6,96.0,11.0,-164.0
214,214,2019,3,7,5,50,37,113.4,-18.8,-69.44,4.8,A09P,-18.48046875,-70.3249740600586,-12300.0,-12300.0,-12300.0,-12300.0,-12300.0,-12300.0,-12300.0,-12300.0,-12300.0,-12300.0,-12300.0,-12300.0,-12300.0,-12300.0,-12300.0,-12300.0,-12300.0,-12300.0,-12300.0,-12300.0,-12300.0,-12300.0,1054,0,-,-12345,-12345,-12345,Intra,151.1,166.23,94.3,88.33,290.6,136.9,203.0,21.0,-50.0
215,215,2019,3,7,5,50,37,113.4,-18.8,-69.44,4.8,A11P,-18.47932815551757,-70.27056884765625,0.00537,0.00537,0.00555,0.00584,0.00812,0.0149,0.00918,0.0083,0.00717,0.006,0.00609,0.00454,0.00501,0.00454,0.00399,0.00117,0.000477,0.000181,9.53e-05,5.17e-05,-12300.0,-12300.0,804,1,1.05,-12345,-12345,-12345,Intra,147.65,163.45,89.3,82.28,291.92,136.9,203.0,21.0,-50.0
216,216,2019,3,7,5,50,37,113.4,-18.8,-69.44,4.8,A14P,-18.35110664367676,-70.3359603881836,-12300.0,-12300.0,-12300.0,-12300.0,-12300.0,-12300.0,-12300.0,-12300.0,-12300.0,-12300.0,-12300.0,-12300.0,-12300.0,-12300.0,-12300.0,-12300.0,-12300.0,-12300.0,-12300.0,-12300.0,-12300.0,-12300.0,474,2,0.42,-12345,-12345,-12345,Intra,155.8,171.1,102.63,89.55,297.57,136.9,203.0,21.0,-50.0
217,217,2019,3,7,5,50,37,113.4,-18.8,-69.44,4.8,A07P,-18.445924758911133,-70.29290771484375,0.00956,0.00955,0.0102,0.0137,0.0172,0.0252,0.022,0.0114,0.01,0.00601,0.00482,0.00405,0.00377,0.00275,0.00167,0.000644,0.000326,0.000121,6.67e-05,4.14e-05,-12300.0,-12300.0,560,1,1.20,-12345,-12345,-12345,Intra,149.99,165.6,93.18,84.77,293.39,136.9,203.0,21.0,-50.0
218,218,2019,3,7,5,50,37,113.4,-18.8,-69.44,4.8,A05P,-18.48636054992676,-70.3005599975586,0.00866,0.00867,0.00906,0.0104,0.019,0.0211,0.0256,0.0165,0.019,0.0135,0.00967,0.00704,0.00626,0.00505,0.00301,0.000951,0.000447,-12300.0,-12300.0,-12300.0,-12300.0,-12300.0,446,2,1.20,sVI,A,Soil,Intra,149.36,164.78,91.71,85.62,290.79,136.9,203.0,21.0,-50.0
219,219,2019,3,7,5,50,37,113.4,-18.8,-69.44,4.8,A06P,-18.469724655151367,-70.29345703125,0.0077,0.00769,0.00805,0.00855,0.0188,0.0221,0.0165,0.0201,0.0236,0.0109,0.00678,0.00563,0.00497,0.00261,0.00151,0.000653,0.000299,-12300.0,-12300.0,-12300.0,-12300.0,-12300.0,500,1,2.50,-12345,-12345,-12345,Intra,149.35,164.9,91.92,84.83,291.96,136.9,203.0,21.0,-50.0
220,220,2019,3,7,5,50,37,113.4,-18.8,-69.44,4.8,T20A,-19.92438507080078,-69.51192474365234,0.0074,0.00742,0.00795,0.00854,0.013,0.0216,0.0237,0.0216,0.0115,0.0076,0.00471,0.0019,0.0014,0.000744,0.000408,0.000206,0.000104,3.91e-05,1.87e-05,1.2e-05,-12300.0,-12300.0,517,2,6.50,-12345,-12345,-12345,Intra,168.55,179.91,116.73,2.01,183.46,136.9,203.0,21.0,-50.0
221,221,2019,3,7,5,50,37,113.4,-18.8,-69.44,4.8,A13P,-18.518814086914062,-70.17936706542969,0.00969,0.0097,0.0107,0.0145,0.0282,0.0252,0.0217,0.0169,0.0153,0.0111,0.00752,0.00923,0.00545,0.00388,0.00169,0.000551,0.000285,0.000112,6.49e-05,3.97e-05,1.73e-05,-12300.0,531,1,1.30,-12345,-12345,-12345,Intra,141.11,157.94,78.76,72.15,291.63,136.9,203.0,21.0,-50.0
222,222,2019,3,7,5,50,37,113.4,-18.8,-69.44,4.8,A19P,-18.493532180786133,-70.29908752441406,0.0103,0.0103,0.0108,0.0137,0.0248,0.0389,0.0206,0.0167,0.0152,0.00877,0.00643,0.00339,0.0038,0.00241,0.00147,0.000509,0.000237,-12300.0,-12300.0,-12300.0,-12300.0,-12300.0,727,0,-,-12345,-12345,-12345,Intra,149.09,164.5,91.21,85.45,290.38,136.9,203.0,21.0,-50.0
223,223,2019,3,7,5,50,37,113.4,-18.8,-69.44,4.8,A12P,-18.45259094238281,-70.06680297851562,-12300.0,-12300.0,-12300.0,-12300.0,-12300.0,-12300.0,-12300.0,-12300.0,-12300.0,-12300.0,-12300.0,-12300.0,-12300.0,-12300.0,-12300.0,-12300.0,-12300.0,-12300.0,-12300.0,-12300.0,-12300.0,-12300.0,560,1,2.20,-12345,-12345,-12345,Intra,136.8,155.19,73.09,59.64,300.07,136.9,203.0,21.0,-50.0
225,225,2019,3,7,5,50,37,113.4,-18.8,-69.44,4.8,A16P,-19.160036087036133,-70.17969512939453,0.0114,0.0114,0.0123,0.0136,0.0182,0.0233,0.0252,0.0407,0.0293,0.0138,0.00635,0.00342,0.00199,0.00116,0.000848,0.000385,0.000181,7.54e-05,3.6e-05,2.24e-05,-12300.0,-12300.0,-12345,-12345,-12345.0,sII,C,Soil,Intra,143.23,156.37,75.56,72.19,242.78,136.9,203.0,21.0,-50.0
226,226,2019,3,7,5,50,37,113.4,-18.8,-69.44,4.8,T11A,-19.312423706054688,-69.42729187011719,0.0198,0.0198,0.0202,0.02,0.0275,0.0438,0.0694,0.0432,0.0492,0.0351,0.0263,0.026,0.0215,0.0121,0.00897,0.00206,0.00083,0.000308,-12300.0,-12300.0,-12300.0,-12300.0,-12345,-12345,-12345.0,sV,B,Soil,Intra,126.8,145.8,50.15,11.41,178.65,136.9,203.0,21.0,-50.0
229,229,2019,3,28,15,5,32,55.3,-24.6,-70.18,5.5,A02F,-23.101343154907227,-70.44506072998047,-12300.0,-12300.0,-12300.0,-12300.0,-12300.0,-12300.0,-12300.0,-12300.0,-12300.0,-12300.0,-12300.0,-12300.0,-12300.0,-12300.0,-12300.0,-12300.0,-12300.0,-12300.0,-12300.0,-12300.0,-12300.0,-12300.0,-12345,-12345,-12345.0,sV,C,Rock,Inter,177.03,184.08,168.94,17.23,350.71,73.1,0.0,24.0,101.0
230,230,2019,3,28,15,5,32,55.3,-24.6,-70.18,5.5,A03F,-23.45322227478028,-70.4405746459961,-12300.0,-12300.0,-12300.0,-12300.0,-12300.0,-12300.0,-12300.0,-12300.0,-12300.0,-12300.0,-12300.0,-12300.0,-12300.0,-12300.0,-12300.0,-12300.0,-12300.0,-12300.0,-12300.0,-12300.0,-12300.0,-12300.0,-12345,-12345,-12345.0,sIII,B,Soil,Inter,141.05,149.26,130.14,16.73,348.16,73.1,0.0,24.0,101.0
231,231,2019,3,28,15,5,32,55.3,-24.6,-70.18,5.5,A05F,-22.89139938354492,-69.3206787109375,-12300.0,-12300.0,-12300.0,-12300.0,-12300.0,-12300.0,-12300.0,-12300.0,-12300.0,-12300.0,-12300.0,-12300.0,-12300.0,-12300.0,-12300.0,-12300.0,-12300.0,-12300.0,-12300.0,-12300.0,-12300.0,-12300.0,-12345,-12345,-12345.0,sII,B,Rock,Inter,215.74,227.51,215.45,107.7,25.02,73.1,0.0,24.0,101.0
233,233,2019,3,28,15,5,32,55.3,-24.6,-70.18,5.5,A01F,-23.63975143432617,-70.39583587646484,-12300.0,-12300.0,-12300.0,-12300.0,-12300.0,-12300.0,-12300.0,-12300.0,-12300.0,-12300.0,-12300.0,-12300.0,-12300.0,-12300.0,-12300.0,-12300.0,-12300.0,-12300.0,-12300.0,-12300.0,-12300.0,-12300.0,-12345,-12345,-12345.0,sI,-,Rock,Inter,121.87,131.33,109.1,11.76,348.3,73.1,0.0,24.0,101.0
236,236,2019,3,28,15,5,32,55.3,-24.6,-70.18,5.5,A04F,-23.666889190673828,-70.40103149414062,-12300.0,-12300.0,-12300.0,-12300.0,-12300.0,-12300.0,-12300.0,-12300.0,-12300.0,-12300.0,-12300.0,-12300.0,-12300.0,-12300.0,-12300.0,-12300.0,-12300.0,-12300.0,-12300.0,-12300.0,-12300.0,-12300.0,-12345,-12345,-12345.0,sII,A,Soil,Inter,119.35,128.9,106.17,12.34,347.69,73.1,0.0,24.0,101.0
237,237,2019,3,28,15,5,32,55.3,-24.6,-70.18,5.5,A19F,-23.48907470703125,-70.41224670410156,0.00927,0.00928,0.0102,0.0123,0.0203,0.0237,0.0319,0.0177,0.0185,0.0158,0.0158,0.00922,0.00526,0.00417,0.00165,0.00059,0.000344,0.000156,9.38e-05,6.56e-05,1.86e-05,-12300.0,-12345,-12345,-12345.0,sII,B,Soil,Inter,136.95,145.56,125.88,13.58,349.08,73.1,0.0,24.0,101.0
238,238,2019,3,28,15,5,32,55.3,-24.6,-70.18,5.5,A24F,-23.61030006408692,-70.26234436035156,0.014,0.014,0.0142,0.0151,0.0218,0.0236,0.0382,0.0375,0.0374,0.0335,0.025,0.0314,0.0209,0.0134,0.00498,0.00196,0.000945,0.00046,0.00024,0.000142,5.49e-05,-12300.0,-12345,-12345,-12345.0,sVI,A,Soil,Inter,123.06,133.64,111.87,3.07,355.62,73.1,0.0,24.0,101.0
240,240,2019,3,28,15,5,32,55.3,-24.6,-70.18,5.5,A23F,-22.336929321289062,-68.6505355834961,0.00596,0.00596,0.00615,0.00629,0.00632,0.00701,0.00956,0.0148,0.0151,0.0169,0.0207,0.0177,0.0112,0.00547,0.00382,0.00215,0.00108,0.000559,0.000262,0.000129,4.41e-05,-12300.0,-12345,-12345,-12345.0,sIV,B,Soil,Inter,300.48,311.97,303.28,182.16,32.25,73.1,0.0,24.0,101.0
241,241,2023,1,4,15,29,38,105.0,-23.0,-68.95,4.5,A05F,-22.89141845703125,-69.32069396972656,0.0116,0.0116,0.0183,0.0247,0.0421,0.0413,0.0337,0.0204,0.0123,0.00774,0.00392,0.00189,0.000969,0.000392,0.000181,6.94e-05,3.91e-05,-12300.0,-12300.0,-12300.0,-12300.0,-12300.0,-12345,-12345,-12345.0,sII,B,Rock,Intra,112.32,112.32,39.88,41.19,287.48,105.0,0.0,0.0,-90.0
242,242,2020,10,25,21,32,42,125.0,-23.23,-68.61,4.6,A05F,-22.891403198242188,-69.3207015991211,0.00812,0.00809,0.00873,0.0111,0.0188,0.0226,0.0198,0.0242,0.019,0.013,0.0055,0.00246,0.00148,0.000675,0.000339,0.000128,6.88e-05,-12300.0,-12300.0,-12300.0,-12300.0,-12300.0,-12345,-12345,-12345.0,sII,B,Rock,Intra,149.45,149.45,81.92,78.97,297.1,125.0,0.0,0.0,-90.0
243,243,2020,10,13,0,30,1,99.0,-23.04,-69.33,4.5,A05F,-22.89141082763672,-69.32066345214844,0.0366,0.0366,0.0847,0.0765,0.0933,0.0753,0.0493,0.0392,0.0187,0.0161,0.00978,0.00427,0.00244,0.000967,0.000517,0.000218,0.000108,4.81e-05,-12300.0,-12300.0,-12300.0,-12300.0,-12345,-12345,-12345.0,sII,B,Rock,Intra,100.36,100.36,16.48,1.04,3.33,99.0,0.0,0.0,-90.0
244,244,2020,10,13,0,30,1,99.0,-23.04,-69.33,4.5,A20F,-22.453733444213867,-68.91004180908203,0.0104,0.0104,0.0128,0.0192,0.049,0.0253,0.0146,0.0148,0.00996,0.00676,0.00568,0.00495,0.00466,0.00193,0.00084,0.000312,0.000163,6.3e-05,3.14e-05,1.94e-05,-12300.0,-12300.0,-12345,-12345,-12345.0,sII,C,Soil,Intra,126.0,126.0,77.95,46.66,33.68,99.0,0.0,0.0,-90.0
246,246,2020,4,30,22,10,34,181.6616,-23.92,-67.16,5.4,A05F,-22.89140892028809,-69.32067108154297,0.00879,0.00879,0.013,0.0187,0.0194,0.0237,0.0216,0.0131,0.015,0.00884,0.00461,0.00193,0.00248,0.000884,0.000677,0.000276,0.000178,6.13e-05,3.38e-05,1.95e-05,8.13e-06,-12300.0,-12345,-12345,-12345.0,sII,B,Rock,Deep,307.81,307.81,248.49,240.07,296.85,181.6616,0.0,0.0,-400.0
247,247,2020,4,30,22,10,34,181.6616,-23.92,-67.16,5.4,A02F,-23.10134696960449,-70.44505310058594,-12300.0,-12300.0,-12300.0,-12300.0,-12300.0,-12300.0,-12300.0,-12300.0,-12300.0,-12300.0,-12300.0,-12300.0,-12300.0,-12300.0,-12300.0,-12300.0,-12300.0,-12300.0,-12300.0,-12300.0,-12300.0,-12300.0,-12345,-12345,-12345.0,sV,C,Rock,Deep,392.15,392.15,347.54,365.0,284.46,181.6616,0.0,0.0,-400.0
248,248,2020,7,21,18,2,0,120.0,-22.16,-68.59,4.7,A23F,-22.33692169189453,-68.65052795410156,0.00661,0.00661,0.0067,0.00698,0.00749,0.00901,0.00892,0.016,0.0276,0.0196,0.016,0.0183,0.00768,0.00395,0.00257,0.00118,-12300.0,-12300.0,-12300.0,-12300.0,-12300.0,-12300.0,-12345,-12345,-12345.0,sIV,B,Soil,Intra,121.75,136.2,18.76,13.39,197.65,134.9,138.0,14.0,-125.0
250,250,2020,6,16,17,54,41,103.6093,-23.22,-68.58,4.8,A05F,-22.891401290893555,-69.32067108154297,0.0107,0.0106,0.0128,0.0184,0.0328,0.0375,0.0158,0.0176,0.0111,0.00765,0.00699,0.00771,0.0038,0.00221,0.00106,0.000366,0.000187,7.4e-05,3.82e-05,2.31e-05,-12300.0,-12300.0,-12345,-12345,-12345.0,sII,B,Rock,Intra,133.49,133.49,84.18,82.3,295.47,103.6093,0.0,0.0,-90.0
251,251,2022,12,19,20,10,50,114.0,-22.31,-68.64,5.0,A05F,-22.89141845703125,-69.32068634033203,0.00797,0.00793,0.0101,0.0145,0.0257,0.0252,0.0175,0.0212,0.0158,0.00971,0.00784,0.00398,0.00215,0.000942,0.000727,0.000319,0.000173,6.02e-05,3.23e-05,-12300.0,-12300.0,-12300.0,-12345,-12345,-12345.0,sII,B,Rock,Intra,148.46,160.09,103.43,80.08,227.26,122.2,348.0,51.0,-71.0
252,252,2022,12,19,20,10,50,114.0,-22.31,-68.64,5.0,A23F,-22.33692741394043,-68.6505355834961,-12300.0,-12300.0,-12300.0,-12300.0,-12300.0,-12300.0,-12300.0,-12300.0,-12300.0,-12300.0,-12300.0,-12300.0,-12300.0,-12300.0,-12300.0,-12300.0,-12300.0,-12300.0,-12300.0,-12300.0,-12300.0,-12300.0,-12345,-12345,-12345.0,sIV,B,Soil,Intra,114.04,122.78,11.93,5.62,200.0,122.2,348.0,51.0,-71.0
255,255,2022,12,19,20,10,50,114.0,-22.31,-68.64,5.0,A20F,-22.45373916625977,-68.91009521484375,0.0156,0.0156,0.017,0.0314,0.038,0.0393,0.0526,0.025,0.0124,0.0117,0.00814,0.00746,0.0068,0.00276,0.00169,0.000675,0.000353,0.000154,7.92e-05,4.75e-05,-12300.0,-12300.0,-12345,-12345,-12345.0,sII,C,Soil,Intra,118.42,128.5,39.76,34.45,240.17,122.2,348.0,51.0,-71.0
263,263,2021,4,29,16,0,40,108.0,-23.23,-68.77,4.8,A05F,-22.891401290893555,-69.3206787109375,0.0339,0.0339,0.0374,0.0435,0.0662,0.124,0.0815,0.0797,0.0382,0.016,0.0104,0.00917,0.00445,0.00173,0.000966,0.000456,0.000258,8.94e-05,4.92e-05,3.14e-05,1.32e-05,-12300.0,-12345,-12345,-12345.0,sII,B,Rock,Intra,127.49,118.51,73.97,77.85,303.5,92.6,316.0,49.0,-98.0
268,268,2022,12,31,3,31,44,96.0,-23.03,-68.89,5.4,A23F,-22.33687973022461,-68.6505355834961,-12300.0,-12300.0,-12300.0,-12300.0,-12300.0,-12300.0,-12300.0,-12300.0,-12300.0,-12300.0,-12300.0,-12300.0,-12300.0,-12300.0,-12300.0,-12300.0,-12300.0,-12300.0,-12300.0,-12300.0,-12300.0,-12300.0,-12345,-12345,-12345.0,sIV,B,Soil,Intra,125.35,128.51,68.22,19.94,17.82,108.9,158.0,31.0,-102.0
270,270,2022,12,31,3,31,44,96.0,-23.03,-68.89,5.4,A20F,-22.45369529724121,-68.9100570678711,0.0194,0.0195,0.0212,0.0259,0.0549,0.0547,0.0705,0.0312,0.0142,0.0158,0.0187,0.0257,0.0239,0.0136,0.00578,0.00201,0.000922,0.000383,-12300.0,-12300.0,-12300.0,-12300.0,-12345,-12345,-12345.0,sII,C,Soil,Intra,115.3,121.28,53.38,8.9,358.15,108.9,158.0,31.0,-102.0
271,271,2022,12,31,3,31,44,96.0,-23.03,-68.89,5.4,A05F,-22.891361236572266,-69.3206787109375,-12300.0,-12300.0,-12300.0,-12300.0,-12300.0,-12300.0,-12300.0,-12300.0,-12300.0,-12300.0,-12300.0,-12300.0,-12300.0,-12300.0,-12300.0,-12300.0,-12300.0,-12300.0,-12300.0,-12300.0,-12300.0,-12300.0,-12345,-12345,-12345.0,sII,B,Rock,Intra,106.78,120.05,50.52,54.52,289.08,108.9,158.0,31.0,-102.0
274,274,2021,1,10,22,11,9,102.0,-22.45,-68.59,4.7,A20F,-22.453706741333008,-68.91004180908203,0.0213,0.0213,0.0223,0.0279,0.0484,0.0542,0.0588,0.0365,0.017,0.0104,0.00804,0.00684,0.00552,0.00317,0.00296,0.00115,0.000526,0.000189,9.15e-05,5.6e-05,2.34e-05,1.32e-05,-12345,-12345,-12345.0,sII,C,Soil,Intra,107.19,101.91,32.47,34.45,269.23,96.6,82.0,39.0,-136.0
275,275,2021,1,10,22,11,9,102.0,-22.45,-68.59,4.7,A23F,-22.336902618408203,-68.65052032470703,-12300.0,-12300.0,-12300.0,-12300.0,-12300.0,-12300.0,-12300.0,-12300.0,-12300.0,-12300.0,-12300.0,-12300.0,-12300.0,-12300.0,-12300.0,-12300.0,-12300.0,-12300.0,-12300.0,-12300.0,-12300.0,-12300.0,-12345,-12345,-12345.0,sIV,B,Soil,Intra,102.95,96.99,8.71,5.61,333.53,96.6,82.0,39.0,-136.0
278,278,2021,1,10,22,11,9,102.0,-22.45,-68.59,4.7,A05F,-22.8913803100586,-69.32069396972656,0.00863,0.00862,0.0102,0.0145,0.0267,0.0233,0.019,0.0216,0.0119,0.00656,0.00554,0.00385,0.00223,0.00109,0.000604,0.000315,0.00013,5.61e-05,2.73e-05,1.68e-05,7.54e-06,-12300.0,-12345,-12345,-12345.0,sII,B,Rock,Intra,135.76,133.34,91.92,80.08,236.8,96.6,82.0,39.0,-136.0
280,280,2023,3,31,10,46,22,54.0,-24.83,-70.19,5.5,A24F,-23.61030006408692,-70.26233673095703,0.00779,0.00779,0.00808,0.00837,0.0107,0.0165,0.0203,0.0233,0.0255,0.0141,0.0182,0.0117,0.00777,0.00272,0.00137,0.000514,0.000224,9.93e-05,5.36e-05,3.54e-05,-12300.0,-12300.0,-12345,-12345,-12345.0,sVI,A,Soil,Inter,145.67,142.64,130.67,0.85,356.87,57.2,7.0,22.0,109.0
281,281,2023,3,31,10,46,22,54.0,-24.83,-70.19,5.5,A19F,-23.489076614379883,-70.41222381591797,0.0062,0.0062,0.0133,0.00736,0.0109,0.0135,0.0222,0.0147,0.00933,0.0055,0.00432,0.00254,0.00162,0.000778,0.000565,0.000227,0.000105,4.01e-05,2.37e-05,1.79e-05,-12300.0,-12300.0,-12345,-12345,-12345.0,sII,B,Soil,Inter,159.64,155.7,144.81,15.8,351.31,57.2,7.0,22.0,109.0
282,282,2023,3,31,10,46,22,54.0,-24.83,-70.19,5.5,A16C,-26.24955940246582,-69.62557983398438,0.00771,0.00771,0.00845,0.0106,0.0196,0.0231,0.0208,0.0173,0.0121,0.00621,0.00677,0.00267,0.0016,0.000708,0.000408,0.000298,0.000236,0.000125,-12300.0,-12300.0,-12300.0,-12300.0,-12345,-12345,-12345.0,sII,B,Rock,Inter,175.68,183.33,174.18,71.6,160.29,57.2,7.0,22.0,109.0
284,284,2023,3,31,10,46,22,54.0,-24.83,-70.19,5.5,A10F,-25.41073226928711,-70.48408508300781,0.0338,0.0337,0.0385,0.051,0.0717,0.0826,0.1,0.0896,0.0477,0.0268,0.0176,0.013,0.00743,0.00286,0.0023,0.000883,0.000363,0.00013,8.06e-05,4.49e-05,-12300.0,-12300.0,-12345,-12345,-12345.0,sII,B,Rock,Inter,89.07,92.01,72.07,23.79,204.69,57.2,7.0,22.0,109.0
