,Unnamed: 0,year,month,days,hour,minute,second,depth,latitude,longitude,magnitude,station,station_latitude,station_longitude,pga,sa0.01,sa0.02,sa0.03,sa0.05,sa0.07,sa0.1,sa0.15,sa0.2,sa0.25,sa0.3,sa0.4,sa0.5,sa0.75,sa1,sa1.5,sa2,sa3,sa4,sa5,sa7.5,sa10,Vs30,HVSRamp,fpeak,T*,P*,Rock/Soil,event_type,HypDist,RupDist,JBDist,XDist,Azimuth,RupDepth,Strike,Dip,Rake
739,739,2018,12,13,4,4,29,98.9273,-27.69,-69.22,4.8,A19C,-27.830347061157227,-70.1080093383789,0.0165,0.0165,0.018,0.0325,0.0487,0.0443,0.0364,0.0333,0.0366,0.0143,0.00903,0.0106,0.00725,0.0021,0.00114,0.000406,0.0002,7.89e-05,4.31e-05,2.73e-05,-12300.0,-12300.0,507,3,2.50,sIV,A,Soil,Intra,133.01,133.01,88.91,98.67,259.72,98.9273,0.0,0.0,-90.0
740,740,2018,12,13,4,4,29,98.9273,-27.69,-69.22,4.8,A27C,-27.36708068847656,-70.33070373535156,0.0089,0.0089,0.00962,0.0115,0.0224,0.0266,0.0223,0.0148,0.00976,0.00792,0.00673,0.00318,0.0027,0.00104,0.000427,0.00013,6.3e-05,2.53e-05,-12300.0,-12300.0,-12300.0,-12300.0,473,2,6.70,sVI,B,Soil,Intra,152.01,152.01,115.41,123.41,287.81,98.9273,0.0,0.0,-90.0
741,741,2018,12,13,4,4,29,98.9273,-27.69,-69.22,4.8,A29C,-27.4217472076416,-70.25967407226562,0.0155,0.0155,0.0176,0.0264,0.0345,0.0337,0.0253,0.0193,0.0132,0.0123,0.00774,0.0045,0.00283,0.00111,0.000589,0.000222,0.000105,-12300.0,-12300.0,-12300.0,-12300.0,-12300.0,622,3,3.80,-12345,-12345,-12345,Intra,145.65,145.65,106.9,115.52,285.9,98.9273,0.0,0.0,-90.0
742,742,2019,5,20,11,18,32,110.3,-31.49,-70.06,5.6,R08M,-33.40144729614258,-71.11975860595703,-12300.0,-12300.0,-12300.0,-12300.0,-12300.0,-12300.0,-12300.0,-12300.0,-12300.0,-12300.0,-12300.0,-12300.0,-12300.0,-12300.0,-12300.0,-12300.0,-12300.0,-12300.0,-12300.0,-12300.0,-12300.0,-12300.0,-12345,-12345,-12345.0,sIII,C,Soil,Intra,258.89,256.24,230.03,119.97,204.9,112.9,13.0,79.0,-154.0
743,743,2019,5,20,11,18,32,110.3,-31.49,-70.06,5.6,A22C,-28.754858016967773,-70.48554992675781,0.00826,0.00826,0.00847,0.00989,0.0115,0.017,0.0181,0.0251,0.0195,0.0192,0.0101,0.00655,0.00279,0.00259,0.00124,0.000317,0.000143,7.54e-05,4.08e-05,2.17e-05,-12300.0,-12300.0,-12345,-12345,-12345.0,sIII,B,Soil,Intra,325.24,331.53,311.72,49.51,352.19,112.9,13.0,79.0,-154.0
744,744,2019,5,20,11,18,32,110.3,-31.49,-70.06,5.6,R18M,-33.50840759277344,-70.74877166748047,0.00764,0.00763,0.00802,0.00825,0.0111,0.0191,0.0261,0.0155,0.0123,0.0161,0.0186,0.0155,0.00911,0.00234,0.00185,0.00129,0.000755,0.000268,0.000147,7.71e-05,3.27e-05,-12300.0,370,2,2.73,sIV,C,Soil,Intra,257.79,254.62,228.22,78.75,195.94,112.9,13.0,79.0,-154.0
745,745,2019,5,20,11,18,32,110.3,-31.49,-70.06,5.6,C29O,-30.6010856628418,-71.20118713378906,0.00882,0.0088,0.0116,0.0201,0.0222,0.0306,0.0324,0.0178,0.0123,0.00952,0.00647,0.00658,0.00498,0.00154,0.00092,0.000447,0.000235,0.000111,5.5e-05,2.93e-05,-12300.0,-12300.0,799,1,1.10,-12345,-12345,-12345,Intra,183.7,189.37,152.04,129.02,311.84,112.9,13.0,79.0,-154.0
746,746,2019,5,20,11,18,32,110.3,-31.49,-70.06,5.6,R12M,-33.388668060302734,-70.62158966064453,0.0101,0.0101,0.0103,0.0109,0.0113,0.0163,0.0229,0.0303,0.023,0.0207,0.0189,0.0163,0.0101,0.00561,0.00518,0.00167,0.000798,0.000329,0.00015,8.61e-05,3.18e-05,-12300.0,267,3,1.50,sV,C,Soil,Intra,243.49,240.34,212.17,64.62,193.93,112.9,13.0,79.0,-154.0
747,747,2019,5,20,11,18,32,110.3,-31.49,-70.06,5.6,C32O,-30.8548641204834,-70.70735168457031,0.0256,0.0256,0.0284,0.035,0.0623,0.107,0.0676,0.0463,0.0196,0.0219,0.0197,0.013,0.00878,0.00413,0.00238,0.000834,0.000537,0.000262,0.000136,7.53e-05,3.13e-05,-12300.0,578,1,6.51,-12345,-12345,-12345,Intra,144.68,150.21,99.07,74.15,318.6,112.9,13.0,79.0,-154.0
750,750,2019,5,20,11,18,32,110.3,-31.49,-70.06,5.6,C07O,-31.633590698242188,-71.16751098632812,0.028,0.028,0.0325,0.0447,0.0668,0.0772,0.0829,0.0634,0.0371,0.0467,0.041,0.0183,0.00899,0.00351,0.00247,0.00131,0.00074,0.00029,-12300.0,-12300.0,-12300.0,-12300.0,654,2,5.32,sIII,C,Soil,Intra,153.22,155.91,107.52,125.28,261.1,112.9,13.0,79.0,-154.0
751,751,2019,5,20,11,18,32,110.3,-31.49,-70.06,5.6,C20O,-29.968137741088867,-71.33739471435547,0.00953,0.00954,0.0108,0.013,0.0204,0.0266,0.0242,0.0229,0.0156,0.0136,0.00942,0.00665,0.00445,0.0036,0.00228,0.000517,0.000256,0.000119,-12300.0,-12300.0,-12300.0,-12300.0,737,2,1.24,sV,C,Soil,Intra,235.79,241.96,214.0,144.15,323.73,112.9,13.0,79.0,-154.0
752,752,2019,5,20,11,18,32,110.3,-31.49,-70.06,5.6,C11O,-30.69640350341797,-70.95890045166016,-12300.0,-12300.0,-12300.0,-12300.0,-12300.0,-12300.0,-12300.0,-12300.0,-12300.0,-12300.0,-12300.0,-12300.0,-12300.0,-12300.0,-12300.0,-12300.0,-12300.0,-12300.0,-12300.0,-12300.0,-12300.0,-12300.0,626,1,3.87,sIII,B,Soil,Intra,165.12,170.81,128.18,102.1,315.5,112.9,13.0,79.0,-154.0
754,754,2019,5,20,11,18,32,110.3,-31.49,-70.06,5.6,V15A,-32.914920806884766,-71.23251342773438,0.0123,0.0123,0.0126,0.0146,0.0152,0.0193,0.0255,0.035,0.0368,0.0268,0.0276,0.0135,0.00538,0.00165,0.000798,0.000652,0.000463,0.000284,0.000178,0.000128,-12300.0,-12300.0,323,3,2.05,-12345,-12345,-12345,Intra,222.16,220.51,189.42,132.5,214.67,112.9,13.0,79.0,-154.0
755,755,2019,5,20,11,18,32,110.3,-31.49,-70.06,5.6,C18O,-30.277767181396484,-70.66919708251953,0.0182,0.0183,0.0214,0.0301,0.0445,0.0448,0.0467,0.0638,0.0331,0.0182,0.0108,0.00641,0.00469,0.00194,0.00138,0.000573,0.000292,0.000126,7.92e-05,4.51e-05,-12300.0,-12300.0,-12345,-12345,-12345.0,sII,C,Soil,Intra,183.36,189.6,152.32,69.91,336.41,112.9,13.0,79.0,-154.0
756,756,2019,5,20,11,18,32,110.3,-31.49,-70.06,5.6,C23O,-31.78375244140625,-70.96977233886719,-12300.0,-12300.0,-12300.0,-12300.0,-12300.0,-12300.0,-12300.0,-12300.0,-12300.0,-12300.0,-12300.0,-12300.0,-12300.0,-12300.0,-12300.0,-12300.0,-12300.0,-12300.0,-12300.0,-12300.0,-12300.0,-12300.0,751,3,2.10,-12345,-12345,-12345,Intra,143.79,145.78,92.23,103.31,249.09,112.9,13.0,79.0,-154.0
757,757,2019,5,20,11,18,32,110.3,-31.49,-70.06,5.6,R13M,-33.21548080444336,-70.76686096191406,0.0129,0.0129,0.0131,0.0135,0.0143,0.022,0.0231,0.0231,0.0226,0.0257,0.0429,0.0376,0.0251,0.00578,0.00356,0.00216,0.00136,0.000507,-12300.0,-12300.0,-12300.0,-12300.0,281,1,1.34,sV,B,Soil,Intra,230.66,227.92,197.99,80.76,198.99,112.9,13.0,79.0,-154.0
759,759,2019,5,20,11,18,32,110.3,-31.49,-70.06,5.6,V12A,-32.45010757446289,-71.23664093017578,0.00895,0.00895,0.00926,0.0102,0.0135,0.0187,0.0214,0.025,0.0228,0.0297,0.0261,0.0177,0.00763,0.00271,0.0014,0.000812,0.000529,0.00022,0.000107,6.17e-05,-12300.0,-12300.0,347,3,2.05,-12345,-12345,-12345,Intra,189.39,188.99,151.56,132.96,225.94,112.9,13.0,79.0,-154.0
762,762,2019,5,20,11,18,32,110.3,-31.49,-70.06,5.6,A23C,-28.972898483276367,-70.21566009521484,0.00679,0.00679,0.00738,0.0136,0.0206,0.0191,0.0135,0.0101,0.0115,0.00719,0.0056,0.00499,0.00319,0.00122,0.000673,0.000216,0.000123,5.44e-05,3.47e-05,2.37e-05,-12300.0,-12300.0,-12345,-12345,-12345.0,sIV,B,Soil,Intra,300.42,306.62,285.08,19.52,356.89,112.9,13.0,79.0,-154.0
763,763,2019,5,20,11,18,32,110.3,-31.49,-70.06,5.6,C17O,-29.90436172485352,-71.23790740966797,0.00885,0.00885,0.009,0.00931,0.0105,0.02,0.023,0.0258,0.0227,0.0201,0.0165,0.00748,0.00567,0.00234,0.00139,0.000519,0.000319,0.000104,5.72e-05,3.16e-05,-12300.0,-12300.0,529,0,-,-12345,-12345,-12345,Intra,236.22,242.47,214.58,133.1,327.0,112.9,13.0,79.0,-154.0
764,764,2019,5,20,11,18,32,110.3,-31.49,-70.06,5.6,C09O,-29.510543823242188,-71.20015716552734,-12300.0,-12300.0,-12300.0,-12300.0,-12300.0,-12300.0,-12300.0,-12300.0,-12300.0,-12300.0,-12300.0,-12300.0,-12300.0,-12300.0,-12300.0,-12300.0,-12300.0,-12300.0,-12300.0,-12300.0,-12300.0,-12300.0,754,1,6.21,sII,B,Rock,Intra,268.89,275.25,251.03,128.91,333.2,112.9,13.0,79.0,-154.0
765,765,2019,5,20,11,18,32,110.3,-31.49,-70.06,5.6,R07M,-33.3671989440918,-70.68975067138672,-12300.0,-12300.0,-12300.0,-12300.0,-12300.0,-12300.0,-12300.0,-12300.0,-12300.0,-12300.0,-12300.0,-12300.0,-12300.0,-12300.0,-12300.0,-12300.0,-12300.0,-12300.0,-12300.0,-12300.0,-12300.0,-12300.0,271,2,0.93,-12345,-12345,-12345,Intra,242.92,239.87,211.63,72.19,195.71,112.9,13.0,79.0,-154.0
767,767,2019,5,20,11,18,32,110.3,-31.49,-70.06,5.6,A24C,-29.09845733642578,-70.46080017089844,0.00711,0.00712,0.00744,0.00842,0.0132,0.0144,0.0172,0.0185,0.019,0.018,0.0102,0.00348,0.0029,0.00153,0.00063,0.000259,0.000138,6.29e-05,3.84e-05,2.82e-05,-12300.0,-12300.0,-12345,-12345,-12345.0,sIII,C,Soil,Intra,289.73,296.05,273.67,46.76,351.62,112.9,13.0,79.0,-154.0
768,768,2019,5,20,11,18,32,110.3,-31.49,-70.06,5.6,C16O,-29.87914085388184,-71.27143096923828,0.00987,0.00987,0.0102,0.012,0.0224,0.0323,0.0273,0.0244,0.0161,0.0141,0.0168,0.00848,0.00963,0.0059,0.00262,0.000611,0.000303,0.000125,7.85e-05,4.82e-05,-12300.0,-12300.0,281,3,1.30,-12345,-12345,-12345,Intra,239.86,246.1,218.67,136.82,326.67,112.9,13.0,79.0,-154.0
770,770,2019,5,20,11,18,32,110.3,-31.49,-70.06,5.6,C14O,-30.12310218811035,-70.49060821533203,-12300.0,-12300.0,-12300.0,-12300.0,-12300.0,-12300.0,-12300.0,-12300.0,-12300.0,-12300.0,-12300.0,-12300.0,-12300.0,-12300.0,-12300.0,-12300.0,-12300.0,-12300.0,-12300.0,-12300.0,-12300.0,-12300.0,-12345,-12345,-12345.0,sIV,C,Soil,Intra,191.91,198.19,162.89,50.07,344.68,112.9,13.0,79.0,-154.0
771,771,2019,5,20,11,18,32,110.3,-31.49,-70.06,5.6,V18A,-33.05150604248047,-71.33802032470703,0.00589,0.00588,0.00639,0.00672,0.0101,0.0147,0.0134,0.011,0.0204,0.0117,0.00845,0.00427,0.00279,0.000776,0.000547,0.000441,0.000313,0.000148,7.11e-05,-12300.0,-12300.0,-12300.0,492,3,4.10,sIII,C,Soil,Intra,238.0,236.19,207.46,144.22,214.47,112.9,13.0,79.0,-154.0
772,772,2019,5,20,11,18,32,110.3,-31.49,-70.06,5.6,V21A,-32.839656829833984,-70.60405731201172,-12300.0,-12300.0,-12300.0,-12300.0,-12300.0,-12300.0,-12300.0,-12300.0,-12300.0,-12300.0,-12300.0,-12300.0,-12300.0,-12300.0,-12300.0,-12300.0,-12300.0,-12300.0,-12300.0,-12300.0,-12300.0,-12300.0,733,0,-,-12345,-12345,-12345,Intra,192.87,190.65,153.62,62.67,198.78,112.9,13.0,79.0,-154.0
773,773,2019,5,20,11,18,32,110.3,-31.49,-70.06,5.6,R17M,-33.205509185791016,-70.6837158203125,-12300.0,-12300.0,-12300.0,-12300.0,-12300.0,-12300.0,-12300.0,-12300.0,-12300.0,-12300.0,-12300.0,-12300.0,-12300.0,-12300.0,-12300.0,-12300.0,-12300.0,-12300.0,-12300.0,-12300.0,-12300.0,-12300.0,563,0,-,-12345,-12345,-12345,Intra,227.6,224.78,194.37,71.52,196.99,112.9,13.0,79.0,-154.0
775,775,2019,5,20,11,18,32,110.3,-31.49,-70.06,5.6,C08O,-31.18720436096192,-71.00082397460938,-12300.0,-12300.0,-12300.0,-12300.0,-12300.0,-12300.0,-12300.0,-12300.0,-12300.0,-12300.0,-12300.0,-12300.0,-12300.0,-12300.0,-12300.0,-12300.0,-12300.0,-12300.0,-12300.0,-12300.0,-12300.0,-12300.0,827,1,1.63,-12345,-12345,-12345,Intra,145.98,150.44,99.43,106.76,290.31,112.9,13.0,79.0,-154.0
776,776,2019,5,20,11,18,32,110.3,-31.49,-70.06,5.6,V02A,-33.023094177246094,-71.51777648925781,0.0107,0.0108,0.0112,0.0126,0.0186,0.0324,0.0466,0.0201,0.00918,0.00509,0.00446,0.00277,0.00218,0.000654,0.000529,0.00029,0.000192,0.000125,6.68e-05,-12300.0,-12300.0,-12300.0,596,2,6.04,sII,C,Rock,Intra,244.82,243.25,215.47,164.2,218.55,112.9,13.0,79.0,-154.0
778,778,2019,5,20,11,18,32,110.3,-31.49,-70.06,5.6,C21O,-31.898616790771484,-71.4926986694336,0.00708,0.00708,0.00719,0.00742,0.00867,0.0137,0.0134,0.023,0.0172,0.0172,0.016,0.0149,0.00674,0.0046,0.00504,0.0014,0.000943,0.000243,0.000119,7.65e-05,-12300.0,-12300.0,404,1,1.35,-12345,-12345,-12345,Intra,180.74,182.44,143.31,161.41,251.18,112.9,13.0,79.0,-154.0
780,780,2019,5,20,11,18,32,110.3,-31.49,-70.06,5.6,V13A,-32.506160736083984,-71.44186401367188,0.00605,0.00605,0.00669,0.00886,0.0106,0.0179,0.0182,0.0261,0.011,0.0065,0.00704,0.00269,0.00175,0.000789,0.000459,0.000405,0.00032,0.000139,7.06e-05,4.36e-05,1.47e-05,7.4e-06,357,3,3.52,-12345,-12345,-12345,Intra,204.73,204.36,170.34,155.76,228.84,112.9,13.0,79.0,-154.0
781,781,2019,2,25,22,54,31,43.2807,-29.68,-71.3,4.6,C26O,-30.25896453857422,-71.49043273925781,0.00898,0.009,0.0104,0.0139,0.0255,0.0188,0.0204,0.0187,0.0201,0.013,0.00693,0.00514,0.00418,0.00199,0.000804,0.000283,0.000128,7.07e-05,-12300.0,-12300.0,-12300.0,-12300.0,364,3,1.87,sIV,C,Soil,Inter,79.56,79.56,66.76,21.16,195.93,43.2807,0.0,0.0,105.0
782,782,2019,2,25,22,54,31,43.2807,-29.68,-71.3,4.6,C17O,-29.90436553955078,-71.23793029785156,0.0118,0.0118,0.0129,0.0156,0.022,0.0387,0.0269,0.0203,0.0122,0.0092,0.00823,0.00674,0.00529,0.00307,0.00234,-12300.0,-12300.0,-12300.0,-12300.0,-12300.0,-12300.0,-12300.0,529,0,-,-12345,-12345,-12345,Inter,50.28,50.28,25.58,6.9,166.45,43.2807,0.0,0.0,105.0
783,783,2019,2,25,22,54,31,43.2807,-29.68,-71.3,4.6,C06O,-29.917875289916992,-71.20088195800781,0.0146,0.0146,0.018,0.0268,0.0339,0.0396,0.0475,0.0225,0.0168,0.00927,0.00798,0.0049,0.00388,0.00275,0.00129,0.000593,-12300.0,-12300.0,-12300.0,-12300.0,-12300.0,-12300.0,-12345,-12345,-12345.0,sI,-,Rock,Inter,51.58,51.58,28.06,11.01,160.05,43.2807,0.0,0.0,105.0
784,784,2019,2,25,22,54,31,43.2807,-29.68,-71.3,4.6,C01O,-29.876962661743164,-71.23790740966797,-12300.0,-12300.0,-12300.0,-12300.0,-12300.0,-12300.0,-12300.0,-12300.0,-12300.0,-12300.0,-12300.0,-12300.0,-12300.0,-12300.0,-12300.0,-12300.0,-12300.0,-12300.0,-12300.0,-12300.0,-12300.0,-12300.0,447,1,1.04,sVI,B,Rock,Inter,48.85,48.85,22.64,6.9,164.64,43.2807,0.0,0.0,105.0
785,785,2019,2,25,22,54,31,43.2807,-29.68,-71.3,4.6,C14O,-30.12310791015625,-70.49061584472656,0.00971,0.00971,0.0109,0.0138,0.0262,0.0311,0.0278,0.0219,0.0161,0.0173,0.0134,0.00675,0.00576,0.00236,0.000856,0.000327,0.000151,7.35e-05,-12300.0,-12300.0,-12300.0,-12300.0,-12345,-12345,-12345.0,sIV,C,Soil,Inter,101.96,101.96,92.32,89.93,122.34,43.2807,0.0,0.0,105.0
786,786,2019,2,25,22,54,31,43.2807,-29.68,-71.3,4.6,C16O,-29.87915802001953,-71.27141571044922,0.0363,0.0363,0.0383,0.0489,0.0814,0.0821,0.0745,0.0967,0.055,0.0348,0.0293,0.0191,0.013,0.0082,0.00487,0.00141,-12300.0,-12300.0,-12300.0,-12300.0,-12300.0,-12300.0,281,3,1.30,-12345,-12345,-12345,Inter,48.66,48.66,22.25,3.18,172.87,43.2807,0.0,0.0,105.0
787,787,2019,2,25,22,54,31,43.2807,-29.68,-71.3,4.6,C08O,-31.187227249145508,-71.0008316040039,0.00744,0.00744,0.00768,0.00803,0.011,0.015,0.0309,0.0242,0.00974,0.00508,0.0036,0.00223,0.00143,0.000525,0.000256,8.9e-05,4.95e-05,2.09e-05,1.08e-05,-12300.0,-12300.0,-12300.0,827,1,1.63,-12345,-12345,-12345,Inter,174.98,174.98,169.54,33.24,170.32,43.2807,0.0,0.0,105.0
788,788,2019,2,25,22,54,31,43.2807,-29.68,-71.3,4.6,C28O,-29.290563583374023,-71.30760955810547,-12300.0,-12300.0,-12300.0,-12300.0,-12300.0,-12300.0,-12300.0,-12300.0,-12300.0,-12300.0,-12300.0,-12300.0,-12300.0,-12300.0,-12300.0,-12300.0,-12300.0,-12300.0,-12300.0,-12300.0,-12300.0,-12300.0,-12345,-12345,-12345.0,sIII,C,Soil,Inter,61.13,61.13,43.17,0.85,359.02,43.2807,0.0,0.0,105.0
789,789,2019,2,25,22,54,31,43.2807,-29.68,-71.3,4.6,C20O,-29.968137741088867,-71.33739471435547,-12300.0,-12300.0,-12300.0,-12300.0,-12300.0,-12300.0,-12300.0,-12300.0,-12300.0,-12300.0,-12300.0,-12300.0,-12300.0,-12300.0,-12300.0,-12300.0,-12300.0,-12300.0,-12300.0,-12300.0,-12300.0,-12300.0,737,2,1.24,sV,C,Soil,Inter,53.91,53.91,32.14,4.15,186.45,43.2807,0.0,0.0,105.0
790,790,2019,2,25,22,54,31,43.2807,-29.68,-71.3,4.6,C11O,-30.6964168548584,-70.95891571044922,0.0117,0.0118,0.0127,0.0149,0.0265,0.037,0.029,0.0163,0.0145,0.00995,0.00745,0.00365,0.00222,0.000905,0.000347,-12300.0,-12300.0,-12300.0,-12300.0,-12300.0,-12300.0,-12300.0,626,1,3.87,sIII,B,Soil,Inter,125.09,125.09,117.37,37.9,163.83,43.2807,0.0,0.0,105.0
794,794,2019,2,25,22,54,31,43.2807,-29.68,-71.3,4.6,C18O,-30.27777099609375,-70.66920471191406,0.0174,0.0174,0.0196,0.0276,0.0386,0.0533,0.0434,0.0531,0.0491,0.0325,0.0173,0.00661,0.00358,0.00179,0.00101,0.00041,0.000206,8.14e-05,4.51e-05,-12300.0,-12300.0,-12300.0,-12345,-12345,-12345.0,sII,C,Soil,Inter,99.85,99.85,89.98,70.09,137.58,43.2807,0.0,0.0,105.0
795,795,2019,2,25,22,54,31,43.2807,-29.68,-71.3,4.6,C09O,-29.51055335998535,-71.20018005371094,0.0281,0.0279,0.0357,0.0946,0.0918,0.0559,0.0507,0.0413,0.0269,0.0116,0.00771,0.00373,0.00247,0.00153,0.00118,0.000446,0.000232,8.61e-05,5.04e-05,3.1e-05,-12300.0,-12300.0,754,1,6.21,sII,B,Rock,Inter,48.16,48.16,21.13,11.09,27.27,43.2807,0.0,0.0,105.0
796,796,2019,2,25,22,54,31,43.2807,-29.68,-71.3,4.6,C33O,-29.910734176635746,-71.2508316040039,-12300.0,-12300.0,-12300.0,-12300.0,-12300.0,-12300.0,-12300.0,-12300.0,-12300.0,-12300.0,-12300.0,-12300.0,-12300.0,-12300.0,-12300.0,-12300.0,-12300.0,-12300.0,-12300.0,-12300.0,-12300.0,-12300.0,587,1,3.20,sIII,B,Rock,Inter,50.5,50.5,26.01,5.46,169.48,43.2807,0.0,0.0,105.0
797,797,2019,2,25,22,54,31,43.2807,-29.68,-71.3,4.6,C19O,-30.093420028686523,-71.36896514892578,0.0161,0.0161,0.0197,0.0321,0.0563,0.0445,0.0297,0.0136,0.011,0.00627,0.00317,0.00164,0.00145,0.00121,0.000784,0.000365,0.000167,6.42e-05,3.87e-05,2.54e-05,1.11e-05,-12300.0,1106,0,-,sI,-,Rock,Inter,63.39,63.39,46.31,7.66,188.25,43.2807,0.0,0.0,105.0
798,798,2019,2,25,22,54,31,43.2807,-29.68,-71.3,4.6,C10O,-30.233917236328125,-71.08161163330078,0.0124,0.0124,0.0181,0.0304,0.0326,0.0211,0.0274,0.0202,0.00985,0.0054,0.00344,0.00207,0.00145,0.000706,0.000521,0.000224,0.000127,4.48e-05,2.45e-05,1.49e-05,-12300.0,-12300.0,-12345,-12345,-12345.0,sII,A,Rock,Inter,78.02,78.02,64.92,24.27,161.11,43.2807,0.0,0.0,105.0
799,799,2019,2,25,22,54,31,43.2807,-29.68,-71.3,4.6,C32O,-30.85487365722656,-70.70735168457031,0.00721,0.0072,0.0075,0.00894,0.0149,0.0186,0.0212,0.0123,0.00598,0.00416,0.00284,0.00218,0.00297,0.000993,0.000438,0.000144,6.75e-05,2.51e-05,-12300.0,-12300.0,-12300.0,-12300.0,578,1,6.51,-12345,-12345,-12345,Inter,148.62,148.62,142.18,65.85,156.5,43.2807,0.0,0.0,105.0
800,800,2019,2,25,22,54,31,43.2807,-29.68,-71.3,4.6,C24O,-29.95461845397949,-71.30149841308594,-12300.0,-12300.0,-12300.0,-12300.0,-12300.0,-12300.0,-12300.0,-12300.0,-12300.0,-12300.0,-12300.0,-12300.0,-12300.0,-12300.0,-12300.0,-12300.0,-12300.0,-12300.0,-12300.0,-12300.0,-12300.0,-12300.0,433,3,0.77,-12345,-12345,-12345,Inter,52.91,52.91,30.44,0.17,180.27,43.2807,0.0,0.0,105.0
803,803,2019,4,11,17,7,32,61.0577,-24.57,-70.09,4.9,A05F,-22.891401290893555,-69.32069396972656,0.00863,0.00863,0.00908,0.0108,0.016,0.0159,0.0167,0.0266,0.0297,0.0144,0.0122,0.00627,0.00326,0.00125,0.000624,0.000201,9.84e-05,5.07e-05,2.86e-05,1.76e-05,7.36e-06,-12300.0,-12345,-12345,-12345.0,sII,B,Rock,Intra,210.82,210.82,201.78,85.48,23.03,61.0577,0.0,0.0,-90.0
872,872,2019,2,22,9,25,58,84.6301,-30.8,-70.9,4.8,C07O,-31.633581161499023,-71.16752624511719,0.0103,0.0103,0.0134,0.0228,0.0246,0.0242,0.028,0.014,0.012,0.00605,0.00373,0.00247,0.0013,0.000383,0.000321,0.000124,6.68e-05,2.85e-05,1.48e-05,-12300.0,-12300.0,-12300.0,654,2,5.32,sIII,C,Soil,Intra,127.88,127.88,95.87,29.72,195.35,84.6301,0.0,0.0,-90.0
874,874,2019,2,22,9,25,58,84.6301,-30.8,-70.9,4.8,C11O,-30.696393966674805,-70.95890808105469,-12300.0,-12300.0,-12300.0,-12300.0,-12300.0,-12300.0,-12300.0,-12300.0,-12300.0,-12300.0,-12300.0,-12300.0,-12300.0,-12300.0,-12300.0,-12300.0,-12300.0,-12300.0,-12300.0,-12300.0,-12300.0,-12300.0,626,1,3.87,sIII,B,Soil,Intra,85.59,85.59,12.8,6.55,333.83,84.6301,0.0,0.0,-90.0
875,875,2019,2,22,9,25,58,84.6301,-30.8,-70.9,4.8,C26O,-30.258939743041992,-71.49042510986328,0.00923,0.00923,0.0104,0.0123,0.0244,0.0248,0.0345,0.0103,0.0081,0.00634,0.00366,0.0034,0.00325,0.00139,0.000465,0.00018,9.01e-05,3.28e-05,-12300.0,-12300.0,-12300.0,-12300.0,364,3,1.87,sIV,C,Soil,Intra,118.2,118.2,82.51,65.6,316.48,84.6301,0.0,0.0,-90.0
876,876,2019,2,22,9,25,58,84.6301,-30.8,-70.9,4.8,C20O,-29.968128204345703,-71.33740234375,0.0102,0.0102,0.0116,0.0173,0.0243,0.0398,0.0275,0.0164,0.00725,0.00526,0.00529,0.00388,0.00305,0.00194,0.000806,0.000234,0.000109,4.44e-05,2.26e-05,1.35e-05,-12300.0,-12300.0,737,2,1.24,sV,C,Soil,Intra,132.04,132.04,101.35,48.6,335.38,84.6301,0.0,0.0,-90.0
877,877,2019,2,22,9,25,58,84.6301,-30.8,-70.9,4.8,C08O,-31.18720817565918,-71.0008316040039,0.0255,0.0255,0.0284,0.0329,0.0433,0.0531,0.0691,0.0697,0.0302,0.0136,0.00778,0.00374,0.00196,0.000914,0.00051,0.00019,0.000108,5.26e-05,3.13e-05,-12300.0,-12300.0,-12300.0,827,1,1.63,-12345,-12345,-12345,Intra,95.38,95.38,44.0,11.2,192.62,84.6301,0.0,0.0,-90.0
