,Unnamed: 0,year,month,days,hour,minute,second,depth,latitude,longitude,magnitude,station,station_latitude,station_longitude,pga,sa0.01,sa0.02,sa0.03,sa0.05,sa0.07,sa0.1,sa0.15,sa0.2,sa0.25,sa0.3,sa0.4,sa0.5,sa0.75,sa1,sa1.5,sa2,sa3,sa4,sa5,sa7.5,sa10,Vs30,HVSRamp,fpeak,T*,P*,Rock/Soil,event_type,HypDist,RupDist,JBDist,XDist,Azimuth,RupDepth,Strike,Dip,Rake
286,286,2023,3,30,17,33,4,22.0,-35.62,-73.82,5.5,M09L,-35.59089660644531,-72.28137969970703,-12300.0,-12300.0,-12300.0,-12300.0,-12300.0,-12300.0,-12300.0,-12300.0,-12300.0,-12300.0,-12300.0,-12300.0,-12300.0,-12300.0,-12300.0,-12300.0,-12300.0,-12300.0,-12300.0,-12300.0,-12300.0,-12300.0,400,2,2.56,sIII,C,Rock,Inter,141.18,120.82,119.89,158.39,89.12,9.058234303455713,14.0,16.0,92.0
288,288,2023,3,30,17,33,4,22.0,-35.62,-73.82,5.5,B05I,-36.54798126220703,-72.93598937988281,-12300.0,-12300.0,-12300.0,-12300.0,-12300.0,-12300.0,-12300.0,-12300.0,-12300.0,-12300.0,-12300.0,-12300.0,-12300.0,-12300.0,-12300.0,-12300.0,-12300.0,-12300.0,-12300.0,-12300.0,-12300.0,-12300.0,-12345,-12345,-12345.0,sVI,C,Rock,Inter,132.01,99.37,98.24,113.54,142.55,9.058234303455713,14.0,16.0,92.0
289,289,2023,3,30,17,33,4,22.0,-35.62,-73.82,5.5,M08L,-35.96705627441406,-72.31005096435547,0.00987,0.00987,0.00992,0.0101,0.0107,0.0115,0.0163,0.0237,0.0217,0.0252,0.0296,0.0381,0.0258,0.00836,0.00579,0.00289,0.00161,0.000711,0.000372,-12300.0,-12300.0,-12300.0,425,2,2.14,-12345,-12345,-12345,Inter,143.52,119.89,118.96,165.41,106.2,9.058234303455713,14.0,16.0,92.0
291,291,2023,3,30,17,33,4,22.0,-35.62,-73.82,5.5,B06I,-36.48624801635742,-72.70039367675781,-12300.0,-12300.0,-12300.0,-12300.0,-12300.0,-12300.0,-12300.0,-12300.0,-12300.0,-12300.0,-12300.0,-12300.0,-12300.0,-12300.0,-12300.0,-12300.0,-12300.0,-12300.0,-12300.0,-12300.0,-12300.0,-12300.0,282,3,2.10,-12345,-12345,-12345,Inter,141.06,109.41,108.39,137.28,133.94,9.058234303455713,14.0,16.0,92.0
292,292,2023,3,30,17,33,4,22.0,-35.62,-73.82,5.5,M15L,-35.33964538574219,-72.40223693847656,0.0142,0.0142,0.0142,0.0143,0.0144,0.0146,0.0152,0.0169,0.0212,0.0312,0.0344,0.0265,0.0317,0.0338,0.0352,0.00957,0.00359,0.00144,-12300.0,-12300.0,-12300.0,-12300.0,308,1,6.74,-12345,-12345,-12345,Inter,134.19,117.39,116.44,138.6,76.82,9.058234303455713,14.0,16.0,92.0
295,295,2023,3,30,17,33,4,22.0,-35.62,-73.82,5.5,M10L,-35.843048095703125,-72.63015747070312,0.00876,0.00876,0.00884,0.00891,0.00949,0.0136,0.0184,0.0183,0.017,0.017,0.0218,0.0224,0.0256,0.00888,0.00732,0.00278,0.00116,0.000654,0.000306,-12300.0,-12300.0,-12300.0,402,0,-,-12345,-12345,-12345,Inter,112.62,89.36,88.11,127.56,103.29,9.058234303455713,14.0,16.0,92.0
297,297,2023,3,30,17,33,4,22.0,-35.62,-73.82,5.5,B02I,-36.782752990722656,-73.10202026367188,0.0096,0.0096,0.00972,0.00973,0.0102,0.0115,0.014,0.0191,0.0271,0.024,0.0223,0.0271,0.0273,0.0178,0.00607,0.00208,0.000965,0.00111,0.000593,-12300.0,-12300.0,-12300.0,-12345,-12345,-12345.0,sIV,A,Soil,Inter,145.94,113.46,112.47,101.95,153.63,9.058234303455713,14.0,16.0,92.0
298,298,2023,3,30,17,33,4,22.0,-35.62,-73.82,5.5,M05L,-34.99013900756836,-71.24336242675781,0.00388,0.00388,0.00391,0.00394,0.00412,0.00409,0.00418,0.00532,0.00526,0.00628,0.00634,0.00755,0.00859,0.0137,0.0103,0.00423,0.00158,0.000555,0.000294,0.000288,-12300.0,-12300.0,494,1,1.20,-12345,-12345,-12345,Inter,245.52,229.35,228.86,254.15,74.14,9.058234303455713,14.0,16.0,92.0
300,300,2023,3,30,17,33,4,22.0,-35.62,-73.82,5.5,M11L,-35.44013214111328,-71.63201904296875,-12300.0,-12300.0,-12300.0,-12300.0,-12300.0,-12300.0,-12300.0,-12300.0,-12300.0,-12300.0,-12300.0,-12300.0,-12300.0,-12300.0,-12300.0,-12300.0,-12300.0,-12300.0,-12300.0,-12300.0,-12300.0,-12300.0,482,3,6.87,sIII,C,Soil,Inter,200.65,181.35,180.73,224.34,84.89,9.058234303455713,14.0,16.0,92.0
301,301,2023,3,30,17,33,4,22.0,-35.62,-73.82,5.5,B17I,-37.03814315795898,-72.4051742553711,-12300.0,-12300.0,-12300.0,-12300.0,-12300.0,-12300.0,-12300.0,-12300.0,-12300.0,-12300.0,-12300.0,-12300.0,-12300.0,-12300.0,-12300.0,-12300.0,-12300.0,-12300.0,-12300.0,-12300.0,-12300.0,-12300.0,-12345,-12345,-12345.0,sIV,C,Soil,Inter,203.43,171.02,170.36,183.94,141.5,9.058234303455713,14.0,16.0,92.0
302,302,2023,3,26,0,2,45,106.0,-21.04,-68.72,5.5,T15A,-20.239213943481445,-70.05391693115234,0.00874,0.00873,0.00983,0.0127,0.0241,0.034,0.0246,0.0127,0.00795,0.00634,0.00449,0.00374,0.004,0.00241,0.00172,0.000603,0.000303,0.00012,6.17e-05,3.47e-05,-12300.0,-12300.0,1003,0,-,-12345,-12345,-12345,Intra,196.01,216.19,165.24,151.54,302.29,139.4,341.0,32.0,-76.0
303,303,2023,3,26,0,2,45,106.0,-21.04,-68.72,5.5,T20A,-19.92433738708496,-69.51191711425781,0.0149,0.0149,0.0153,0.0176,0.0205,0.0313,0.0543,0.0467,0.0404,0.0151,0.0105,0.00854,0.00707,0.00342,0.00169,0.000603,0.000277,0.000119,6.42e-05,4.05e-05,1.88e-05,-12300.0,517,2,6.50,-12345,-12345,-12345,Intra,182.53,202.41,146.75,91.32,326.08,139.4,341.0,32.0,-76.0
304,304,2023,3,26,0,2,45,106.0,-21.04,-68.72,5.5,T10A,-19.995391845703125,-69.7670669555664,0.0117,0.0117,0.0129,0.0143,0.0215,0.0385,0.0258,0.0263,0.0381,0.03,0.0204,0.0172,0.00508,0.0026,0.00164,0.000548,0.000287,0.00012,6.91e-05,4.08e-05,1.67e-05,9.22e-06,336,2,4.01,sIII,B,Soil,Intra,191.15,210.77,158.09,119.67,316.46,139.4,341.0,32.0,-76.0
306,306,2023,3,26,0,2,45,106.0,-21.04,-68.72,5.5,T11A,-19.31236267089844,-69.42725372314453,-12300.0,-12300.0,-12300.0,-12300.0,-12300.0,-12300.0,-12300.0,-12300.0,-12300.0,-12300.0,-12300.0,-12300.0,-12300.0,-12300.0,-12300.0,-12300.0,-12300.0,-12300.0,-12300.0,-12300.0,-12300.0,-12300.0,-12345,-12345,-12345.0,sV,B,Soil,Intra,230.83,245.52,202.1,81.92,338.74,139.4,341.0,32.0,-76.0
307,307,2023,3,22,16,0,31,240.0,-23.51,-66.69,6.3,A19F,-23.48908424377441,-70.41223907470703,0.0114,0.0114,0.013,0.0179,0.0337,0.0347,0.0449,0.021,0.0158,0.0125,0.00969,0.00477,0.00345,0.00154,0.000848,0.000434,0.00034,0.000242,0.000158,0.000103,-12300.0,-12300.0,-12345,-12345,-12345.0,sII,B,Soil,Deep,449.61,449.61,380.19,413.58,269.61,240.0,0.0,0.0,-400.0
308,308,2023,3,22,16,0,31,240.0,-23.51,-66.69,6.3,T11A,-19.312419891357425,-69.42728424072266,0.00978,0.00979,0.01,0.0107,0.0143,0.017,0.0326,0.0284,0.0251,0.0307,0.0158,0.0144,0.011,0.0124,0.0105,0.0024,0.000946,0.00037,0.00026,0.000217,-12300.0,-12300.0,-12345,-12345,-12345.0,sV,B,Soil,Deep,595.07,595.07,544.52,304.14,328.08,240.0,0.0,0.0,-400.0
309,309,2023,3,22,16,0,31,240.0,-23.51,-66.69,6.3,A02F,-23.1013298034668,-70.44506072998047,-12300.0,-12300.0,-12300.0,-12300.0,-12300.0,-12300.0,-12300.0,-12300.0,-12300.0,-12300.0,-12300.0,-12300.0,-12300.0,-12300.0,-12300.0,-12300.0,-12300.0,-12300.0,-12300.0,-12300.0,-12300.0,-12300.0,-12345,-12345,-12345.0,sV,C,Rock,Deep,455.17,455.17,386.75,417.22,275.97,240.0,0.0,0.0,-400.0
310,310,2023,3,22,16,0,31,240.0,-23.51,-66.69,6.3,A05F,-22.891403198242188,-69.3206787109375,0.0259,0.0258,0.0426,0.0551,0.0795,0.0635,0.0487,0.0548,0.0281,0.0229,0.0161,0.0105,0.00492,0.0027,0.00325,0.00119,0.000771,0.000354,0.000251,0.000154,6.78e-05,4.15e-05,-12345,-12345,-12345.0,sII,B,Rock,Deep,367.17,367.17,277.88,292.29,283.75,240.0,0.0,0.0,-400.0
311,311,2023,3,22,16,0,31,240.0,-23.51,-66.69,6.3,A23F,-22.3369140625,-68.65052795410156,0.00528,0.00528,0.00551,0.00601,0.00906,0.00871,0.0109,0.0137,0.0135,0.0118,0.0149,0.0127,0.0107,0.00742,0.008,0.00348,0.00259,0.00103,0.000819,0.00044,-12300.0,-12300.0,-12345,-12345,-12345.0,sIV,B,Soil,Deep,339.0,339.0,239.42,217.83,302.48,240.0,0.0,0.0,-400.0
312,312,2023,3,22,16,0,31,240.0,-23.51,-66.69,6.3,T10A,-19.99542999267578,-69.76705169677734,0.0142,0.0142,0.0145,0.0159,0.0276,0.0395,0.0284,0.0313,0.031,0.0326,0.0335,0.0203,0.00965,0.00526,0.0029,0.000909,0.000508,0.000293,0.000193,0.000141,-12300.0,-12300.0,336,2,4.01,sIII,B,Soil,Deep,557.05,557.05,502.7,341.89,320.14,240.0,0.0,0.0,-400.0
315,315,2023,3,22,16,0,31,240.0,-23.51,-66.69,6.3,T15A,-20.23926544189453,-70.05392456054688,0.0103,0.0103,0.0109,0.0126,0.0203,0.0251,0.0407,0.0238,0.0168,0.0136,0.0109,0.00652,0.0056,0.003,0.00155,0.000636,0.00052,0.000353,0.000259,0.000164,6.89e-05,3.72e-05,1003,0,-,-12345,-12345,-12345,Deep,556.4,556.4,501.98,373.77,315.53,240.0,0.0,0.0,-400.0
316,316,2023,3,22,16,0,31,240.0,-23.51,-66.69,6.3,T07A,-20.256242752075195,-69.78596496582031,0.0162,0.0162,0.0168,0.0177,0.0238,0.0408,0.0346,0.0552,0.0319,0.0531,0.0372,0.0232,0.0141,0.00624,0.00306,0.00117,0.000715,0.000318,0.000203,0.000129,6.83e-05,-12300.0,326,3,2.87,sIV,C,Soil,Deep,538.27,538.27,481.8,343.99,317.8,240.0,0.0,0.0,-400.0
319,319,2023,3,22,16,0,31,240.0,-23.51,-66.69,6.3,A16C,-26.24952888488769,-69.62557983398438,0.00901,0.009,0.00982,0.0134,0.0232,0.0279,0.0339,0.0212,0.0192,0.0108,0.0076,0.00554,0.00566,0.00264,0.000978,0.00041,0.000351,0.000251,0.000187,0.000113,-12300.0,-12300.0,-12345,-12345,-12345.0,sII,B,Rock,Deep,487.49,487.49,424.32,326.17,223.74,240.0,0.0,0.0,-400.0
321,321,2023,3,22,16,0,31,240.0,-23.51,-66.69,6.3,T19A,-20.287303924560547,-70.10456848144531,0.0053,0.0053,0.00573,0.00567,0.00613,0.00741,0.0098,0.0118,0.0135,0.0145,0.0112,0.00975,0.00803,0.0109,0.00547,0.00134,0.000588,0.000492,0.000328,0.000216,-12300.0,-12300.0,822,0,-,-12345,-12345,-12345,Deep,556.22,556.22,501.78,379.39,314.67,240.0,0.0,0.0,-400.0
322,322,2023,3,22,16,0,31,240.0,-23.51,-66.69,6.3,A24F,-23.61028861999512,-70.26233673095703,0.00781,0.00782,0.00824,0.0102,0.0165,0.0189,0.0316,0.025,0.0218,0.0161,0.0105,0.008,0.00598,0.00292,0.00126,0.000533,0.000402,0.000246,0.000129,0.000108,-12300.0,-12300.0,-12345,-12345,-12345.0,sVI,A,Soil,Deep,436.73,436.73,364.88,396.92,267.54,240.0,0.0,0.0,-400.0
323,323,2023,3,22,16,0,31,240.0,-23.51,-66.69,6.3,A11F,-21.424880981445312,-70.0567855834961,0.013,0.013,0.0138,0.0171,0.0281,0.0547,0.0433,0.0195,0.0219,0.0148,0.0121,0.00907,0.00519,0.00188,0.00164,0.000726,0.000662,0.000599,0.000337,0.000194,-12300.0,-12300.0,-12345,-12345,-12345.0,sII,C,Soil,Deep,480.58,480.58,416.36,374.08,303.03,240.0,0.0,0.0,-400.0
325,325,2023,3,22,16,0,31,240.0,-23.51,-66.69,6.3,T20A,-19.924392700195312,-69.51192474365234,0.0152,0.0152,0.0156,0.0165,0.0232,0.031,0.0401,0.0409,0.0521,0.0212,0.0138,0.00847,0.00552,0.00314,0.00177,0.0007,0.00033,0.000297,0.000221,0.000139,-12300.0,-12300.0,517,2,6.50,-12345,-12345,-12345,Deep,548.12,548.12,492.78,313.54,323.14,240.0,0.0,0.0,-400.0
326,326,2023,3,22,16,0,31,240.0,-23.51,-66.69,6.3,A01F,-23.639726638793945,-70.39581298828125,0.0043,0.0043,0.00521,0.00772,0.00867,0.00811,0.0094,0.0103,0.00817,0.0123,0.00732,0.00758,0.0056,0.00285,0.00164,0.000561,0.000374,0.000219,0.000132,8.38e-05,-12300.0,-12300.0,-12345,-12345,-12345.0,sI,-,Rock,Deep,448.23,448.23,378.56,411.75,267.08,240.0,0.0,0.0,-400.0
328,328,2023,3,22,16,0,31,240.0,-23.51,-66.69,6.3,A20F,-22.453723907470703,-68.91004943847656,0.0108,0.0108,0.0141,0.0229,0.0357,0.0364,0.0319,0.022,0.0122,0.00852,0.0075,0.00652,0.00658,0.00539,0.00508,0.00171,0.000961,0.000415,0.000225,0.000162,-12300.0,-12300.0,-12345,-12345,-12345.0,sII,C,Soil,Deep,350.85,350.85,255.93,246.67,296.76,240.0,0.0,0.0,-400.0
330,330,2023,3,22,16,0,31,240.0,-23.51,-66.69,6.3,T13A,-20.496320724487305,-69.33747100830078,0.0101,0.0101,0.0107,0.0129,0.0182,0.0251,0.0393,0.024,0.0188,0.021,0.0149,0.0118,0.0101,0.0067,0.00253,0.000979,0.000613,0.000271,0.00013,8.63e-05,-12300.0,-12300.0,378,1,8.65,sIV,B,Soil,Deep,493.63,493.63,431.36,294.16,320.17,240.0,0.0,0.0,-400.0
333,333,2023,3,21,17,38,13,64.0,-33.61,-71.33,5.5,V07A,-33.36542892456055,-71.66902160644531,-12300.0,-12300.0,-12300.0,-12300.0,-12300.0,-12300.0,-12300.0,-12300.0,-12300.0,-12300.0,-12300.0,-12300.0,-12300.0,-12300.0,-12300.0,-12300.0,-12300.0,-12300.0,-12300.0,-12300.0,-12300.0,-12300.0,549,1,5.72,sVI,B,Rock,Intra,76.32,76.32,41.58,37.67,310.63,64.0,0.0,0.0,-90.0
334,334,2023,3,21,17,38,13,64.0,-33.61,-71.33,5.5,R18M,-33.50845718383789,-70.748779296875,0.0694,0.0694,0.075,0.0916,0.155,0.217,0.2,0.238,0.162,0.141,0.105,0.0689,0.032,0.0112,0.00595,0.00274,0.00234,0.000799,-12300.0,-12300.0,-12300.0,-12300.0,370,2,2.73,sIV,C,Soil,Intra,84.47,84.47,55.13,64.58,78.37,64.0,0.0,0.0,-90.0
336,336,2023,3,21,17,38,13,64.0,-33.61,-71.33,5.5,V17A,-33.60307693481445,-71.61492156982422,-12300.0,-12300.0,-12300.0,-12300.0,-12300.0,-12300.0,-12300.0,-12300.0,-12300.0,-12300.0,-12300.0,-12300.0,-12300.0,-12300.0,-12300.0,-12300.0,-12300.0,-12300.0,-12300.0,-12300.0,-12300.0,-12300.0,281,2,0.95,-12345,-12345,-12345,Intra,69.25,69.25,26.45,31.66,271.58,64.0,0.0,0.0,-90.0
339,339,2023,3,21,17,38,13,64.0,-33.61,-71.33,5.5,V12A,-32.45012664794922,-71.23666381835938,-12300.0,-12300.0,-12300.0,-12300.0,-12300.0,-12300.0,-12300.0,-12300.0,-12300.0,-12300.0,-12300.0,-12300.0,-12300.0,-12300.0,-12300.0,-12300.0,-12300.0,-12300.0,-12300.0,-12300.0,-12300.0,-12300.0,347,3,2.05,-12345,-12345,-12345,Intra,143.94,143.94,128.93,10.37,3.9,64.0,0.0,0.0,-90.0
341,341,2023,3,21,17,38,13,64.0,-33.61,-71.33,5.5,V08A,-33.019981384277344,-71.54962921142578,-12300.0,-12300.0,-12300.0,-12300.0,-12300.0,-12300.0,-12300.0,-12300.0,-12300.0,-12300.0,-12300.0,-12300.0,-12300.0,-12300.0,-12300.0,-12300.0,-12300.0,-12300.0,-12300.0,-12300.0,-12300.0,-12300.0,344,3,0.93,-12345,-12345,-12345,Intra,93.79,93.79,68.56,24.4,342.58,64.0,0.0,0.0,-90.0
342,342,2023,3,21,17,38,13,64.0,-33.61,-71.33,5.5,V03A,-33.05521011352539,-71.43852233886719,-12300.0,-12300.0,-12300.0,-12300.0,-12300.0,-12300.0,-12300.0,-12300.0,-12300.0,-12300.0,-12300.0,-12300.0,-12300.0,-12300.0,-12300.0,-12300.0,-12300.0,-12300.0,-12300.0,-12300.0,-12300.0,-12300.0,575,3,5.50,sII,C,Soil,Intra,89.35,89.35,62.36,12.06,350.65,64.0,0.0,0.0,-90.0
344,344,2023,3,21,17,38,13,64.0,-33.61,-71.33,5.5,V02A,-33.023128509521484,-71.51781463623047,-12300.0,-12300.0,-12300.0,-12300.0,-12300.0,-12300.0,-12300.0,-12300.0,-12300.0,-12300.0,-12300.0,-12300.0,-12300.0,-12300.0,-12300.0,-12300.0,-12300.0,-12300.0,-12300.0,-12300.0,-12300.0,-12300.0,596,2,6.04,sII,C,Rock,Intra,92.94,92.94,67.4,20.87,344.91,64.0,0.0,0.0,-90.0
346,346,2023,3,21,17,38,13,64.0,-33.61,-71.33,5.5,R13M,-33.21553421020508,-70.766845703125,-12300.0,-12300.0,-12300.0,-12300.0,-12300.0,-12300.0,-12300.0,-12300.0,-12300.0,-12300.0,-12300.0,-12300.0,-12300.0,-12300.0,-12300.0,-12300.0,-12300.0,-12300.0,-12300.0,-12300.0,-12300.0,-12300.0,281,1,1.34,sV,B,Soil,Intra,93.56,93.56,68.25,62.57,50.29,64.0,0.0,0.0,-90.0
348,348,2023,3,21,17,38,13,64.0,-33.61,-71.33,5.5,V15A,-32.91495132446289,-71.23249816894531,0.0431,0.0431,0.045,0.0493,0.0574,0.0602,0.102,0.138,0.127,0.0807,0.0614,0.0553,0.0274,0.0097,0.00605,0.00232,0.00118,0.000579,0.000316,-12300.0,-12300.0,-12300.0,323,3,2.05,-12345,-12345,-12345,Intra,100.6,100.6,77.62,10.83,6.75,64.0,0.0,0.0,-90.0
350,350,2023,3,21,17,38,13,64.0,-33.61,-71.33,5.5,V22A,-33.02028274536133,-71.63583374023438,-12300.0,-12300.0,-12300.0,-12300.0,-12300.0,-12300.0,-12300.0,-12300.0,-12300.0,-12300.0,-12300.0,-12300.0,-12300.0,-12300.0,-12300.0,-12300.0,-12300.0,-12300.0,-12300.0,-12300.0,-12300.0,-12300.0,854,1,8.50,-12345,-12345,-12345,Intra,95.84,95.84,71.34,33.98,336.39,64.0,0.0,0.0,-90.0
351,351,2023,3,21,17,38,13,64.0,-33.61,-71.33,5.5,R12M,-33.38872528076172,-70.62159729003906,0.142,0.141,0.147,0.152,0.3,0.319,0.302,0.366,0.48,0.19,0.118,0.104,0.0897,0.0291,0.0154,0.00485,0.00246,0.00145,0.000588,0.000362,-12300.0,-12300.0,267,3,1.50,sV,C,Soil,Intra,95.03,95.03,70.25,78.71,69.75,64.0,0.0,0.0,-90.0
352,352,2023,3,21,17,38,13,64.0,-33.61,-71.33,5.5,M11L,-35.44013977050781,-71.63200378417969,0.00722,0.00723,0.00762,0.0077,0.00886,0.0135,0.0155,0.019,0.0278,0.0196,0.0165,0.00855,0.0036,0.00217,0.00104,0.000518,0.000352,0.000181,7.06e-05,4.26e-05,1.93e-05,1.05e-05,482,3,6.87,sIII,C,Soil,Intra,214.67,214.67,204.91,33.56,187.69,64.0,0.0,0.0,-90.0
354,354,2023,3,21,17,38,13,64.0,-33.61,-71.33,5.5,V19A,-32.8458137512207,-70.12968444824219,-12300.0,-12300.0,-12300.0,-12300.0,-12300.0,-12300.0,-12300.0,-12300.0,-12300.0,-12300.0,-12300.0,-12300.0,-12300.0,-12300.0,-12300.0,-12300.0,-12300.0,-12300.0,-12300.0,-12300.0,-12300.0,-12300.0,321,2,2.60,-12345,-12345,-12345,Intra,154.26,154.26,140.36,133.37,53.19,64.0,0.0,0.0,-90.0
355,355,2023,3,21,17,38,13,64.0,-33.61,-71.33,5.5,R07M,-33.36723327636719,-70.68977355957031,-12300.0,-12300.0,-12300.0,-12300.0,-12300.0,-12300.0,-12300.0,-12300.0,-12300.0,-12300.0,-12300.0,-12300.0,-12300.0,-12300.0,-12300.0,-12300.0,-12300.0,-12300.0,-12300.0,-12300.0,-12300.0,-12300.0,271,2,0.93,-12345,-12345,-12345,Intra,91.44,91.44,65.31,71.14,65.83,64.0,0.0,0.0,-90.0
356,356,2023,3,21,17,38,13,64.0,-33.61,-71.33,5.5,R02M,-33.47278594970703,-70.65975952148438,0.0429,0.0429,0.0453,0.0623,0.0901,0.136,0.0812,0.072,0.0896,0.105,0.0549,0.0253,0.0142,0.00451,0.00256,0.00294,0.00233,0.000829,0.000411,0.00022,-12300.0,-12300.0,724,0,-,sIII,B,Soil,Intra,90.57,90.57,64.08,74.47,76.45,64.0,0.0,0.0,-90.0
359,359,2023,3,21,17,38,13,64.0,-33.61,-71.33,5.5,V01A,-33.05312728881836,-71.62203979492188,-12300.0,-12300.0,-12300.0,-12300.0,-12300.0,-12300.0,-12300.0,-12300.0,-12300.0,-12300.0,-12300.0,-12300.0,-12300.0,-12300.0,-12300.0,-12300.0,-12300.0,-12300.0,-12300.0,-12300.0,-12300.0,-12300.0,607,0,-,sII,B,Rock,Intra,93.0,93.0,67.48,32.45,336.16,64.0,0.0,0.0,-90.0
360,360,2023,3,21,17,38,13,64.0,-33.61,-71.33,5.5,R14M,-33.39717483520508,-70.54625701904297,0.0435,0.0434,0.045,0.059,0.128,0.122,0.111,0.0723,0.0369,0.0345,0.027,0.0157,0.0143,0.00659,0.00396,0.00358,0.00213,0.00106,0.000454,0.000241,9.76e-05,5.24e-05,574,0,-,sIV,A,Soil,Intra,99.78,99.78,76.55,87.08,72.26,64.0,0.0,0.0,-90.0
361,361,2023,3,21,17,38,13,64.0,-33.61,-71.33,5.5,C07O,-31.63362503051757,-71.16751098632812,-12300.0,-12300.0,-12300.0,-12300.0,-12300.0,-12300.0,-12300.0,-12300.0,-12300.0,-12300.0,-12300.0,-12300.0,-12300.0,-12300.0,-12300.0,-12300.0,-12300.0,-12300.0,-12300.0,-12300.0,-12300.0,-12300.0,654,2,5.32,sIII,C,Soil,Intra,228.84,228.84,219.71,18.05,4.02,64.0,0.0,0.0,-90.0
362,362,2023,3,21,17,38,13,64.0,-33.61,-71.33,5.5,V21A,-32.83967590332031,-70.60403442382812,-12300.0,-12300.0,-12300.0,-12300.0,-12300.0,-12300.0,-12300.0,-12300.0,-12300.0,-12300.0,-12300.0,-12300.0,-12300.0,-12300.0,-12300.0,-12300.0,-12300.0,-12300.0,-12300.0,-12300.0,-12300.0,-12300.0,733,0,-,-12345,-12345,-12345,Intra,126.39,126.39,108.99,80.66,38.58,64.0,0.0,0.0,-90.0
364,364,2023,3,21,17,38,13,64.0,-33.61,-71.33,5.5,R17M,-33.205570220947266,-70.68372344970703,-12300.0,-12300.0,-12300.0,-12300.0,-12300.0,-12300.0,-12300.0,-12300.0,-12300.0,-12300.0,-12300.0,-12300.0,-12300.0,-12300.0,-12300.0,-12300.0,-12300.0,-12300.0,-12300.0,-12300.0,-12300.0,-12300.0,563,0,-,-12345,-12345,-12345,Intra,98.6,98.6,75.01,71.81,53.45,64.0,0.0,0.0,-90.0
365,365,2023,3,21,17,38,13,64.0,-33.61,-71.33,5.5,V18A,-33.051536560058594,-71.33802032470703,-12300.0,-12300.0,-12300.0,-12300.0,-12300.0,-12300.0,-12300.0,-12300.0,-12300.0,-12300.0,-12300.0,-12300.0,-12300.0,-12300.0,-12300.0,-12300.0,-12300.0,-12300.0,-12300.0,-12300.0,-12300.0,-12300.0,492,3,4.10,sIII,C,Soil,Intra,89.07,89.07,61.94,0.89,359.31,64.0,0.0,0.0,-90.0
366,366,2023,3,21,17,38,13,64.0,-33.61,-71.33,5.5,M01L,-35.41511535644531,-71.66223907470703,0.00622,0.00622,0.00665,0.00693,0.00845,0.013,0.0147,0.0183,0.0176,0.0155,0.0194,0.0062,0.00302,0.00193,0.000992,0.000472,0.000298,0.000143,6.35e-05,-12300.0,-12300.0,-12300.0,511,2,6.97,-12345,-12345,-12345,Intra,212.43,212.43,202.55,36.92,188.57,64.0,0.0,0.0,-90.0
367,367,2023,3,21,17,38,13,64.0,-33.61,-71.33,5.5,R21M,-33.38102340698242,-70.7961196899414,-12300.0,-12300.0,-12300.0,-12300.0,-12300.0,-12300.0,-12300.0,-12300.0,-12300.0,-12300.0,-12300.0,-12300.0,-12300.0,-12300.0,-12300.0,-12300.0,-12300.0,-12300.0,-12300.0,-12300.0,-12300.0,-12300.0,347,3,0.39,sV,C,Soil,Intra,84.87,84.87,55.73,59.32,63.04,64.0,0.0,0.0,-90.0
369,369,2023,3,21,17,38,13,64.0,-33.61,-71.33,5.5,C23O,-31.783796310424805,-70.96977233886719,0.0126,0.0126,0.0142,0.0205,0.0332,0.0369,0.0308,0.0319,0.0195,0.0143,0.0195,0.00745,0.00425,0.00138,0.000833,0.00047,0.000396,0.00015,9.02e-05,-12300.0,-12300.0,-12300.0,751,3,2.10,-12345,-12345,-12345,Intra,215.06,215.06,205.32,40.02,9.57,64.0,0.0,0.0,-90.0
